     0.01000000     -0.5867814      0.5774743      -12345.00      -12345.00
       9.459999       19.45000       0.000000       10.47000       2.000000
      -12345.00       20.00000      -12345.00      -12345.00      -12345.00
      -12345.00      -12345.00      -12345.00      -12345.00      -12345.00
       17.78000      -12345.00      -12345.00      -12345.00      -12345.00
      -12345.00      -12345.00      -12345.00      -12345.00      -12345.00
      -12345.00       87.99997      -120.0000      -12345.00      -12345.00
       47.99997      -125.0000      -12345.00      -12345.00      -12345.00
       123.4560      -12345.00      -12345.00      -12345.00      -12345.00
      -12345.00      -12345.00      -12345.00      -12345.00      -12345.00
       4461.052      0.2719055       185.2047       40.18595      -12345.00
      -12345.00   1.912133e-08       0.000000       0.000000      -12345.00
      -12345.00      -12345.00      -12345.00      -12345.00      -12345.00
      -12345.00      -12345.00      -12345.00      -12345.00      -12345.00
      1981        88        10        38        14
         0         6         0         0      1000
    -12345    -12345    -12345    -12345    -12345
         1        50         9    -12345    -12345
    -12345    -12345        42    -12345    -12345
    -12345    -12345    -12345    -12345    -12345
    -12345    -12345    -12345    -12345    -12345
         1         1         1         1         0
CDV              K8108838
-12345  HOLE    IPD0    
XYZ     -12345  KT1     
-12345  -12345  -12345  
-12345  -12345  -12345  
-12345  -12345  ABKD    
USER0   -12345  Q       
-12345  -12345  -12345  
  -1.293210e-06  -8.098138e-06  -2.056634e-05  -2.104804e-05   1.842616e-05
   9.519693e-05   0.0001440859   7.214744e-05  -0.0001430784  -0.0003776937
  -0.0004080750  -8.770821e-05   0.0004716912   0.0008914040   0.0007605706
  -1.762228e-05   -0.001040138   -0.001584509   -0.001101211   0.0003091060
    0.001820316    0.002351649    0.001326396  -0.0008086170   -0.002734035
   -0.003071937   -0.001361311    0.001491593    0.003677600    0.003639018
    0.001172680   -0.002297120   -0.004542474   -0.003975740  -0.0007689146
    0.003139971    0.005230225    0.004041451   0.0001942124   -0.003925867
   -0.005666233   -0.003834867   0.0004803977    0.004565797    0.005810460
    0.003394469   -0.001167590   -0.004989852   -0.005663315   -0.002790713
    0.001780029    0.005159376    0.005263057    0.002109085   -0.002248835
   -0.005071671   -0.004672900   -0.001431249    0.002532299    0.004752755
    0.003966112   0.0008253729   -0.002614567   -0.004248895   -0.003217245
  -0.0003409675    0.002505652    0.003620531    0.002492192   2.607689e-06
   -0.002237248   -0.002930512   -0.001840393   0.0001860652    0.001851599
    0.002237204    0.001297332  -0.0002355495   -0.001397501   -0.001593927
  -0.0008837321   0.0001717019   0.0009274855    0.001040846   0.0005990408
  -3.232947e-05  -0.0004858873  -0.0005961104  -0.0004248286  -0.0001442846
   0.0001021110   0.0002603756   0.0003341904   0.0003236397   0.0002062977
  -2.223658e-05  -0.0002957631  -0.0004776176  -0.0004346198  -0.0001391651
   0.0002800456   0.0005900459   0.0005885492   0.0002381992  -0.0002926959
  -0.0007163661  -0.0007779988  -0.0003674880   0.0004449443    0.001370097
    0.001825742    0.001037110   -0.001385199   -0.004533771   -0.005884002
   -0.002649187    0.005377701     0.01373458     0.01484217    0.003688682
    -0.01606507    -0.03142235    -0.02772949  -0.0007620421     0.03603698
     0.05693684     0.04105464   -0.009660020    -0.06593251    -0.08708986
    -0.04964371     0.03104129      0.1043785      0.1158116     0.04685366
    -0.06521429     -0.1463248     -0.1347760    -0.02781874      0.1093933
      0.1834802      0.1370567   -0.007150879     -0.1561172     -0.2073106
     -0.1201816     0.05217941      0.1957558      0.2122557     0.08727884
    -0.09790017     -0.2202018     -0.1978244    -0.04558899      0.1352808
      0.2255902      0.1678149    0.003081420     -0.1584411     -0.2122086
     -0.1278467     0.03385296      0.1648196      0.1827734     0.08362753
    -0.06057158     -0.1538766     -0.1410955    -0.04081494     0.07327389
      0.1263498     0.09227227    0.005541807    -0.06930183    -0.08538296
    -0.04313553     0.01701311     0.04943176     0.03717944   0.0002229321
    -0.02533296    -0.01827879     0.01138054     0.03274769     0.02151137
    -0.01810803    -0.05488447    -0.05487002   -0.009672316     0.05363179
     0.08971336     0.06763713   -0.004756534    -0.08306903     -0.1147500
    -0.07467955     0.01640435      0.1034796      0.1315645     0.08060889
    -0.02130570     -0.1145231     -0.1435109    -0.08979545     0.01728160
      0.1175808      0.1543289      0.1057035   -0.003349538     -0.1146257
     -0.1675218     -0.1309692    -0.02043581      0.1083557      0.1864124
      0.1669215     0.05219077     -0.1025754     -0.2137194     -0.2127605
    -0.08778574      0.1018383      0.2508903      0.2653860      0.1214364
     -0.1106879     -0.2980151     -0.3202163     -0.1468647      0.1329216
      0.3538672      0.3718743      0.1583168     -0.1705619     -0.4152317
     -0.4142231     -0.1513336      0.2228793      0.4765214      0.4409129
      0.1236522     -0.2861420     -0.5305946     -0.4466743    -0.07599544
      0.3538230      0.5697038      0.4283120     0.01238909     -0.4172896
     -0.5867814     -0.3855482     0.06035049      0.4676290      0.5774743
      0.3218794     -0.1335234     -0.4975819     -0.5415636     -0.2443991
      0.1979907      0.5027386      0.4825247      0.1617462     -0.2463102
     -0.4820441     -0.4060677    -0.08200862      0.2738209      0.4374276
      0.3192149     0.01234251     -0.2781827     -0.3729346     -0.2295836
     0.04125944      0.2590337      0.2939618      0.1445332    -0.07463138
     -0.2184360     -0.2075567    -0.07122820     0.08578110      0.1615182
      0.1228924     0.01662131    -0.07507659    -0.09607148    -0.04993581
     0.01408028     0.04560243     0.03096323   -0.003299715    -0.01946818
   -0.003171502     0.02557527     0.03260922    0.002558136    -0.04436453
    -0.06691172    -0.03768051     0.03031033     0.08861738     0.08865568
     0.02119121    -0.07138819     -0.1222468    -0.08892320     0.01211737
      0.1127238      0.1396684     0.06833433    -0.05603767     -0.1471343
     -0.1379358    -0.03014125      0.1037870      0.1695005      0.1173974
    -0.02017768     -0.1488616     -0.1770627    -0.08098715     0.07619265
      0.1859544      0.1692697     0.03303810     -0.1319367     -0.2116255
     -0.1474190     0.02144680      0.1820623      0.2236140      0.1137346
    -0.07715729     -0.2214662     -0.2201948    -0.07093792      0.1287096
      0.2456797      0.2008517     0.02283376     -0.1706700     -0.2516047
     -0.1672152     0.02525761      0.1978965      0.2381837      0.1232716
    -0.06717657     -0.2067100     -0.2071066    -0.07487110     0.09741049
      0.1962716      0.1629606     0.02854941     -0.1124882     -0.1688330
     -0.1120217     0.01005109      0.1114430      0.1285992     0.06046113
    -0.03718911    -0.09539758    -0.08049139    -0.01340552     0.05106009
     0.06696870     0.02960835    -0.02512324    -0.05147488    -0.02992316
     0.01891072     0.05217797     0.03979313    -0.01093447    -0.06015908
    -0.06626329    -0.01905399     0.05020785     0.09032618     0.06793417
   -0.006316902    -0.08299170     -0.1076967    -0.05980308     0.03156354
      0.1060848      0.1129340     0.04563005    -0.05290869     -0.1185985
     -0.1085732    -0.02927801     0.06815462      0.1216101     0.09809842
     0.01407839    -0.07643964     -0.1171931    -0.08494191   -0.002442496
     0.07786728      0.1076377     0.07182256   -0.004351278    -0.07332008
    -0.09518503    -0.06067427    0.006031943     0.06433319     0.08204464
     0.05277707   -0.003189469    -0.05295504    -0.07023191    -0.04862758
   -0.002792704     0.04140481     0.06116010     0.04785829     0.01015931
    -0.03146115    -0.05539810    -0.04961079    -0.01744368     0.02407711
     0.05279794     0.05291465     0.02367951    -0.01948718    -0.05272914
    -0.05677239    -0.02823721     0.01750248     0.05430967     0.06020036
     0.03068284    -0.01772039    -0.05655893    -0.06227900    -0.03076296
     0.01956800     0.05848681     0.06229814     0.02852401    -0.02233894
    -0.05930931    -0.06000180    -0.02440011     0.02529645     0.05860301
     0.05564185     0.01915222    -0.02773490    -0.05625192    -0.04978890
    -0.01362047     0.02915401     0.05242237     0.04307664    0.008369437
    -0.02948108    -0.04752389    -0.03602362   -0.003636678     0.02887959
     0.04196494     0.02904300  -0.0003295243    -0.02735233    -0.03602992
    -0.02262565    0.003079536     0.02482235     0.03015804     0.01746467
   -0.004213899    -0.02157087    -0.02514588    -0.01422276    0.003802164
     0.01839783     0.02187100     0.01308777   -0.002550219    -0.01632838
    -0.02079416    -0.01353389    0.001535356     0.01605058     0.02158332
     0.01445615   -0.001701624    -0.01752461    -0.02321360    -0.01466922
    0.003446225     0.02007968     0.02454075     0.01349236   -0.006490204
    -0.02278797    -0.02478588    -0.01089946     0.01015342     0.02485476
     0.02365794    0.007265607    -0.01376485    -0.02586985    -0.02129676
   -0.003111700     0.01685754     0.02575487     0.01802190   -0.001103213
    -0.01913007    -0.02450849    -0.01407885    0.005053975     0.02035037
     0.02209898    0.009645048   -0.008452451    -0.02029499    -0.01852704
   -0.004968263     0.01096636     0.01879756     0.01393618   0.0004057623
    -0.01230583    -0.01588333   -0.008670519    0.003643017     0.01234706
     0.01183154    0.003219586   -0.006846695    -0.01117097   -0.007080906
    0.001929915    0.008997774    0.008971753    0.002091110   -0.006334891
   -0.009924849   -0.005946500    0.002679134    0.009536272    0.009447498
    0.002315271   -0.006749430    -0.01112511   -0.007518404    0.001589018
    0.009687232     0.01093047    0.004376931   -0.005305173    -0.01118896
   -0.009078249  -0.0005249397    0.008307249     0.01110150    0.005931183
   -0.003397528    -0.01014668   -0.009523144   -0.002086485    0.006739952
     0.01063107    0.006886933   -0.001718528   -0.009016919   -0.009877466
   -0.003796390    0.004859921     0.01002799    0.008209370   0.0008164584
   -0.006956784   -0.009826407   -0.006027902    0.001628704    0.007864614
    0.008612913    0.003690169   -0.003303362   -0.007631385   -0.006667010
   -0.001493659    0.004114612    0.006448733    0.004343036  -0.0002934155
   -0.004085283   -0.004635429   -0.002038608    0.001487670    0.003397344
    0.002623862   0.0001302190   -0.002041362   -0.002367276  -0.0008682632
    0.001105705    0.002026726    0.001327916  -0.0002993188   -0.001566203
   -0.001603622  -0.0005403698   0.0007313034    0.001321722   0.0009907057
   0.0001952494  -0.0004131546  -0.0005525786  -0.0004460649  -0.0004551347
  -0.0006044622  -0.0004955234   0.0002557380    0.001447153    0.002185240
    0.001504729  -0.0006895700   -0.003178318   -0.004046069   -0.002103047
    0.001921108    0.005478196    0.005798199    0.001991278   -0.003919288
   -0.008016856   -0.007095462   -0.001103551    0.006409605     0.01040182
    0.007740788  -0.0004122164   -0.009018017    -0.01230832   -0.007675168
    0.002338254     0.01142887     0.01354728    0.006946976   -0.004455945
    -0.01343256    -0.01407011   -0.005686220    0.006572850     0.01492506
     0.01393177    0.004053962   -0.008546101    -0.01588136    -0.01323452
   -0.002201920     0.01028154     0.01632974     0.01210938   0.0002718652
    -0.01172870    -0.01635045    -0.01071392    0.001609752     0.01287570
     0.01604405    0.009180677   -0.003368912    -0.01373789    -0.01547446
   -0.007559667    0.004994290     0.01431791     0.01462555    0.005820871
   -0.006489143    -0.01456359    -0.01341302   -0.003908752    0.007838332
     0.01440612     0.01177281    0.001807910   -0.009016938    -0.01382614
   -0.009725221   0.0004339658    0.009996905     0.01285186    0.007345915
   -0.002741760    -0.01075112    -0.01151629   -0.004704256    0.005043075
     0.01122754    0.009806220    0.001847924   -0.007222489    -0.01128720
   -0.007655105    0.001136172    0.009063059     0.01072968    0.005048950
   -0.004033716    -0.01027389   -0.009430503   -0.002160550    0.006486728
     0.01059555    0.007453609  -0.0006547522   -0.008124756   -0.009939576
   -0.005061707    0.003002021    0.008745710    0.008458243    0.002630308
   -0.004589963   -0.008370097   -0.006453837  -0.0004969239    0.005300110
    0.007166371    0.004232219   -0.001129759   -0.005165589   -0.005373664
   -0.002062314    0.002140466    0.004313225    0.003271088   0.0001896131
   -0.002486675   -0.002922763   -0.001144295    0.001188238    0.002191226
    0.001214302  -0.0007542580   -0.001973168   -0.001377950   0.0005697333
    0.002254370    0.002193329   0.0002397294   -0.002227169   -0.003291232
   -0.001951071    0.001044478    0.003629102    0.003858885    0.001350032
   -0.002334481   -0.004681766   -0.003960537  -0.0004859941    0.003499135
    0.005299301    0.003611946  -0.0005315767   -0.004408709   -0.005423869
   -0.002870614    0.001572588    0.004962024    0.005065583    0.001852630
   -0.002508374   -0.005126270   -0.004321733  -0.0007139682    0.003247054
    0.004950268    0.003350843  -0.0003913507   -0.003748104   -0.004530756
   -0.002313708    0.001350287    0.004016505    0.003974458    0.001333813
   -0.002111151   -0.004100188   -0.003380544  -0.0004808793    0.002681348
    0.004065875    0.002815058  -0.0002287503   -0.003096226   -0.003962317
   -0.002298070   0.0008165811    0.003396267    0.003810521    0.001806170
   -0.001341426   -0.003634548   -0.003611368   -0.001273425    0.001899177
    0.003868267    0.003334770   0.0005992132   -0.002583800   -0.004108163
   -0.002900912   0.0003141919    0.003422286    0.004288105    0.002215874
   -0.001497613   -0.004352383   -0.004311221   -0.001239343    0.002894419
    0.005265675    0.004107542  -5.464535e-07   -0.004395425   -0.006048800
   -0.003636880    0.001445094    0.005880003    0.006591430    0.002864312
   -0.003031580   -0.007223544   -0.006785297   -0.001772895    0.004667494
    0.008285091    0.006545628   0.0004056050   -0.006204621   -0.008919256
   -0.005844144    0.001119235    0.007461986    0.009019024    0.004731670
   -0.002629194   -0.008276787   -0.008557396   -0.003339622    0.003934846
    0.008547484    0.007597336    0.001843568   -0.004884136   -0.008257017
   -0.006260529  -0.0004052244    0.005395890    0.007459481    0.004693379
  -0.0008402446   -0.005438804   -0.006250862   -0.003059437    0.001768380
    0.005013070    0.004760079    0.001529640   -0.002287279   -0.004173520
   -0.003149078  -0.0002514472    0.002376991    0.003044663    0.001593113
  -0.0006818242   -0.002095665   -0.001790130  -0.0002372368    0.001249482
    0.001555475   0.0005650586  -0.0008351902   -0.001493013  -0.0008816177
   0.0005169181    0.001597005    0.001476028   0.0001693667   -0.001399872
   -0.002062178   -0.001257209   0.0005313716    0.002080279    0.002269538
   0.0008819510   -0.001203428   -0.002577254   -0.002256420  -0.0003820283
    0.001832450    0.002893682    0.002041523  -0.0002074396   -0.002374496
   -0.003000157   -0.001636184   0.0008312649    0.002761820    0.002862568
    0.001065128   -0.001423481   -0.002936742   -0.002476907  -0.0003840072
    0.001910682    0.002870759    0.001895472  -0.0002992735   -0.002205977
   -0.002571386   -0.001229317   0.0008407017    0.002233332    0.002083979
   0.0006086681   -0.001122791   -0.001970702   -0.001488212  -0.0001443968
    0.001093563    0.001465875   0.0008940339  -7.764113e-05  -0.0007607405
  -0.0008203537  -0.0004266130  -1.860055e-06   0.0001746155   0.0001596604
   0.0001978188   0.0004012438   0.0005777694   0.0003906834  -0.0002744141
   -0.001075065   -0.001372903  -0.0007278009   0.0006515645    0.001906737
    0.002069274   0.0007970431   -0.001249043   -0.002736703   -0.002545318
  -0.0006041073    0.001939758    0.003411215    0.002732101   0.0002111327
   -0.002581122   -0.003815361   -0.002627690   0.0002712642    0.003035230
    0.003888752    0.002293034  -0.0007106455   -0.003200814   -0.003635869
   -0.001828554   0.0009938296    0.003041434    0.003123190    0.001347528
   -0.001053726   -0.002591786   -0.002460736  -0.0009475256   0.0008844969
    0.001945741    0.001772641   0.0006899061  -0.0005340352   -0.001227460
   -0.001173343  -0.0006034031   7.297736e-05   0.0005529140   0.0007446209
