     0.01000000     -0.4582160      0.5300220      -12345.00      -12345.00
       9.459999       19.45000       0.000000       10.47000       2.000000
      -12345.00       20.00000      -12345.00      -12345.00      -12345.00
      -12345.00      -12345.00      -12345.00      -12345.00      -12345.00
       17.78000      -12345.00      -12345.00      -12345.00      -12345.00
      -12345.00      -12345.00      -12345.00      -12345.00      -12345.00
      -12345.00       87.99997      -120.0000      -12345.00      -12345.00
       47.99997      -125.0000      -12345.00      -12345.00      -12345.00
       123.4560      -12345.00      -12345.00      -12345.00      -12345.00
      -12345.00      -12345.00      -12345.00      -12345.00      -12345.00
       4461.052      0.2719055       185.2047       40.18595      -12345.00
      -12345.00    -0.02251861       0.000000       0.000000      -12345.00
      -12345.00      -12345.00      -12345.00      -12345.00      -12345.00
      -12345.00      -12345.00      -12345.00      -12345.00      -12345.00
      1981        88        10        38        14
         0         6         0         0      1000
    -12345    -12345    -12345    -12345    -12345
         1        50         9    -12345    -12345
    -12345    -12345        42    -12345    -12345
    -12345    -12345    -12345    -12345    -12345
    -12345    -12345    -12345    -12345    -12345
         1         1         1         1         0
CDV              K8108838
-12345  HOLE    IPD0    
XYZ     -12345  KT1     
-12345  -12345  -12345  
-12345  -12345  -12345  
-12345  -12345  ABKD    
USER0   -12345  Q       
-12345  -12345  -12345  
    -0.02060567    -0.01766892    -0.01743392    -0.02104723    -0.02665848
    -0.03026898    -0.02862651    -0.02233438    -0.01579210    -0.01313489
    -0.01577409    -0.02128314    -0.02589040    -0.02657389    -0.02408377
    -0.02161600    -0.02047560    -0.02092776    -0.02093182    -0.01947517
    -0.01729095    -0.01714725    -0.02015674    -0.02469534    -0.02776173
    -0.02677293    -0.02239521    -0.01750654    -0.01535914    -0.01718025
    -0.02113961    -0.02484563    -0.02557090    -0.02367575    -0.02117424
    -0.01978406    -0.01942275    -0.01972481    -0.02014195    -0.02031078
    -0.02092243    -0.02278614    -0.02460991    -0.02575699    -0.02485326
    -0.02254079    -0.02012013    -0.01900375    -0.01981418    -0.02230243
    -0.02487016    -0.02602321    -0.02561456    -0.02381401    -0.02215501
    -0.02142356    -0.02186318    -0.02238785    -0.02321327    -0.02348517
    -0.02476615    -0.02541090    -0.02587281    -0.02468811    -0.02350361
    -0.02206161    -0.02191651    -0.02243011    -0.02356278    -0.02462033
    -0.02531676    -0.02527135    -0.02460686    -0.02384732    -0.02346579
    -0.02349545    -0.02358815    -0.02346802    -0.02303242    -0.02360557
    -0.02474528    -0.02599169    -0.02652262    -0.02533923    -0.02379035
    -0.02292726    -0.02331034    -0.02406991    -0.02517467    -0.02571932
    -0.02518182    -0.02437290    -0.02350762    -0.02335376    -0.02321551
    -0.02374407    -0.02389973    -0.02371852    -0.02332866    -0.02334678
    -0.02469140    -0.02748263    -0.03523353    -0.05907413     -0.1135932
     -0.1819266     -0.1962195     -0.1131576     0.02500135      0.1320314
      0.1468468      0.1042902      0.1068483      0.1774522      0.1967089
     0.05369240     -0.1827100     -0.3187693     -0.2425430    -0.03588766
      0.1272030      0.1559142     0.09133473   -0.002392106     -0.1137889
     -0.2243625     -0.2655044     -0.2018992     -0.1007202    -0.05803007
    -0.06990783    -0.02725275      0.1336297      0.3108428      0.3214189
      0.1069859     -0.1892883     -0.3544068     -0.2748532    -0.01482928
      0.2310871      0.2780143     0.09648385     -0.1527267     -0.2512197
     -0.1300015     0.06004320      0.1022245    -0.06708734     -0.2900085
     -0.3318974     -0.1135394      0.1934168      0.3265359      0.1778936
     -0.1185110     -0.3061084     -0.2343253     0.01425830      0.2068108
      0.1773530    -0.02036922     -0.1729294     -0.1219078     0.07761744
      0.2184215      0.1584042    -0.03015609     -0.1481691    -0.09856156
     0.01973464     0.04792253    -0.04618467     -0.1607911     -0.1965579
     -0.1526881    -0.09612198    -0.06532222    -0.04335851    -0.02110142
    -0.01940637    -0.04180811    -0.05275495    -0.02899962   0.0002924651
   -0.003622122    -0.01852318     0.01581537      0.1050290      0.1749247
      0.1503100     0.03312586     -0.1010329     -0.1678032     -0.1300517
    -0.01873443     0.08129238      0.1027932     0.05534502     0.01665950
     0.03429542     0.06450123     0.03777068    -0.04382274     -0.1232112
     -0.1609537     -0.1546065     -0.1219860    -0.08693589    -0.06052826
    -0.03552299   -0.006983757    0.006704014    -0.01380389    -0.06096438
     -0.1084798     -0.1359275     -0.1342134     -0.1044731    -0.04346253
     0.05715063      0.1836818      0.2846480      0.3102384      0.2449361
      0.1036803    -0.06906696     -0.2156430     -0.2956447     -0.2910933
     -0.2054773    -0.07322890     0.03226677     0.04245892    -0.04212496
     -0.1457495     -0.1918350     -0.1538537    -0.04617013     0.09126828
      0.2002928      0.2401695      0.2204917      0.1776070      0.1305314
     0.06819722    -0.02930522     -0.1649204     -0.3102691     -0.4005824
     -0.3808659     -0.2620852     -0.1241300    -0.05131549    -0.07159459
     -0.1305638     -0.1282980   -0.002344754      0.1972964      0.3366277
      0.3226534      0.1901215     0.05487126   -0.002220273    0.001594521
   -0.007742446    -0.08052278     -0.1998599     -0.2963131     -0.2969256
     -0.1861904    -0.02525903     0.09253025      0.1262369      0.1157982
      0.1352858      0.2134556      0.2956777      0.3028227      0.2051537
     0.04402465     -0.1048805     -0.1974027     -0.2486274     -0.2873287
     -0.2921681     -0.2011472    0.009652227      0.2577532      0.4024560
      0.3436638     0.09887344     -0.2066136     -0.4200109     -0.4582160
     -0.3549967     -0.2183818     -0.1327039    -0.09886269    -0.06039270
     0.01129068     0.07230056     0.05436691    -0.04401011     -0.1380354
     -0.1299087     0.01145624      0.2342524      0.4396036      0.5300220
      0.4578504      0.2599348     0.04384661    -0.08372875     -0.1030905
    -0.07559088    -0.07829659     -0.1481304     -0.2613758     -0.3572150
     -0.3798631     -0.3215309     -0.2313619     -0.1739148     -0.1682052
     -0.1672298    -0.09892920     0.05776511      0.2391530      0.3461620
      0.3214977      0.1928009     0.04346089    -0.05666339    -0.09712721
     -0.1117589     -0.1262860     -0.1320207    -0.09859907    -0.01924602
     0.06292289     0.08761097     0.02957571    -0.06883147     -0.1250642
    -0.08086946     0.04145973      0.1524690      0.1656538     0.06975664
    -0.06162720     -0.1389754     -0.1401663     -0.1179047     -0.1323681
     -0.1734447     -0.1659387    -0.05380487      0.1228509      0.2429234
      0.2050939     0.02547447     -0.1640295     -0.2201420     -0.1051350
     0.08834010      0.2137777      0.1865214     0.04542966    -0.08584100
     -0.1140607    -0.04619381     0.03533219     0.05710787    0.008771937
    -0.06076600    -0.09969378    -0.09553439    -0.07488322    -0.06728250
    -0.07442737    -0.08180661    -0.07988127    -0.07422356    -0.07292928
    -0.07066181    -0.05682173    -0.02712174    0.009414097     0.03972479
     0.05748715     0.06889880     0.08517107      0.1008689     0.08840138
     0.02625566    -0.07295594     -0.1624915     -0.1925972     -0.1414992
    -0.03530646     0.06440366     0.09897744     0.05910049   -0.009742780
    -0.04872063    -0.03248405     0.01504145     0.04520309     0.02772421
    -0.02574037    -0.07509346    -0.08507316    -0.05285658   -0.004545663
     0.02842423     0.02088712    -0.03167166     -0.1115474     -0.1754827
     -0.1792813     -0.1095773   -0.001373269     0.08402538      0.1031988
     0.05737530    -0.01064347    -0.05487888    -0.05799398    -0.03438431
    -0.01516857    -0.01844669    -0.03674671    -0.04759631    -0.03445389
   -0.005908355     0.01014797   -0.007227618    -0.05082480    -0.09086257
    -0.09847285    -0.06945430    -0.02110776     0.01841227     0.02856235
    0.007998956    -0.02481980    -0.04362068    -0.03186066    0.004505241
     0.03660418     0.03346633    -0.01570735    -0.08896914     -0.1483503
     -0.1585265     -0.1094918    -0.02240855     0.05787634     0.08914889
     0.05791696   -0.005191073    -0.04589713    -0.02502276     0.04550268
      0.1105136      0.1144014     0.04825269    -0.04418766     -0.1034816
     -0.1023844    -0.06276749    -0.02729109    -0.02235272    -0.03981603
    -0.05586691    -0.05763912    -0.05237544    -0.05260254    -0.06106592
    -0.06821147    -0.06144230    -0.03842784    -0.01128152    0.006862227
     0.01234399     0.01331526     0.01799695     0.02643812     0.03118786
     0.03273485     0.04063911     0.06545831     0.09678200      0.1054690
     0.06212197    -0.02867996     -0.1206177     -0.1561308     -0.1121840
    -0.02640674     0.02704304   -0.001758289    -0.09670489     -0.1875499
     -0.2066966     -0.1378568    -0.02871807     0.04518191     0.03946640
    -0.02576320    -0.08570959    -0.08618567    -0.02984792     0.03445473
     0.05532126     0.01828522    -0.04468810    -0.08538085    -0.08010219
    -0.04283144   -0.009006672   -0.003280288    -0.02118591    -0.04038528
    -0.04339866    -0.03091501    -0.01593733   -0.009841083    -0.01371079
    -0.01799565    -0.01319180    0.002526582     0.02129409     0.03333998
     0.03400655     0.02187745   -0.001274379    -0.02952633    -0.04979917
    -0.04528740    -0.01043514     0.03711196     0.06513360     0.04649324
    -0.01601884    -0.08809943     -0.1238067     -0.1000095    -0.02914204
     0.04561564     0.07996532     0.05559210    -0.01130309    -0.08113740
     -0.1156473    -0.09970175    -0.05445116    -0.01675076    -0.01411811
    -0.04239978    -0.07389811    -0.07873701    -0.04993266   -0.007417446
     0.02036062     0.01964916   -0.002061270    -0.02272828    -0.02567263
   -0.007001268     0.01992384     0.03232127     0.01391634    -0.02833955
    -0.06795649    -0.07861264    -0.05569500    -0.02204328   -0.006678110
    -0.02353982    -0.05863736    -0.08388940    -0.07611595    -0.03804049
    0.002973255     0.01571140   -0.009278654    -0.04863307    -0.06653094
    -0.04117223     0.01438922     0.06323141     0.07058366     0.02887918
    -0.03661171    -0.08591313    -0.08992238    -0.04820034     0.01049369
     0.04871203     0.04086692    -0.01032829    -0.07442498     -0.1153084
     -0.1078612    -0.05745635    0.007464997     0.05056272     0.05103084
     0.01539775    -0.03044388    -0.05896432    -0.05987929    -0.04210607
    -0.02363906    -0.01607845    -0.01618486    -0.01258592  -0.0006758114
     0.01230692     0.01227197   -0.006970011    -0.03725993    -0.05948149
    -0.05770300    -0.03078173    0.003632102     0.02086569    0.004705291
    -0.03999337    -0.09013573     -0.1166176     -0.1039569    -0.05861461
   -0.007576481     0.01829541    0.003806623    -0.03809194    -0.07227713
    -0.06804658    -0.02261070     0.03274882     0.05798161     0.03363190
    -0.02346928    -0.07415335    -0.08433701    -0.04896379    0.004854597
     0.03947154     0.03083165    -0.01203253    -0.05887445    -0.07864434
    -0.06120547    -0.02407318    0.003397182    0.003307682    -0.02119310
    -0.04950756    -0.06253533    -0.05627043    -0.03958746    -0.02763895
    -0.02856404    -0.03721737    -0.04186138    -0.03272053    -0.01245614
    0.007264666     0.01240508   -0.002764734    -0.02815785    -0.04461797
    -0.03753641   -0.007167509     0.02753104     0.04124364     0.02146995
    -0.02166071    -0.06034246    -0.06852763    -0.04168338  -0.0009712130
     0.02256063     0.01006767    -0.03310365    -0.07892323    -0.09668170
    -0.07285590    -0.02060035     0.02895617     0.04607926     0.02188207
    -0.02773219    -0.07094467    -0.08265688    -0.05702454    -0.01197808
     0.02389364     0.02849174  -1.560338e-05    -0.04095775    -0.06792279
    -0.06616223    -0.04421152    -0.02319056    -0.02051802    -0.03365056
    -0.04525317    -0.03861660    -0.01454061    0.008410109     0.01122892
   -0.009217592    -0.03335563    -0.03719694    -0.01090232     0.02825425
     0.05071929     0.03629344   -0.008683774    -0.05535450    -0.07357849
    -0.05436869    -0.01427511     0.01689592     0.01854083   -0.009138535
    -0.04689459    -0.07174140    -0.06865734    -0.03850222    0.001458690
     0.02787158     0.02506066   -0.005011997    -0.04460193    -0.06835955
    -0.06328867    -0.03385125  -0.0009478517     0.01232188   -0.002881313
    -0.03503067    -0.05933104    -0.05856981    -0.03396323   -0.004001204
     0.01056618    0.001535486    -0.02145207    -0.04153524    -0.04516149
    -0.03322918    -0.01547830   -0.005668875    -0.01010953    -0.02339164
    -0.03278546    -0.02906300    -0.01485573   -0.003552338   -0.007323846
    -0.02591404    -0.04513457    -0.04659441    -0.02430717    0.009459782
     0.02984379     0.01890051    -0.01980787    -0.06195950    -0.07705789
    -0.05288288   -0.004693706     0.03618956     0.04121195    0.007029589
    -0.04371978    -0.07838000    -0.07677847    -0.04451717   -0.005564313
     0.01331704    0.001127942    -0.03245674    -0.06406698    -0.07346682
    -0.05637539    -0.02641218   -0.004422732   -0.002277706    -0.01862483
    -0.03967897    -0.05110868    -0.04665108    -0.03170986    -0.01697310
    -0.01232352    -0.01858036    -0.02828695    -0.03191913    -0.02410474
    -0.01016718  -0.0003527002   -0.002749261    -0.01410698    -0.02472197
    -0.02353195   -0.009735249    0.005670561    0.007516283   -0.008236111
    -0.03263512    -0.04712044    -0.03968108    -0.01311682     0.01518707
     0.02557962    0.009564279    -0.02496605    -0.05740720    -0.06636153
    -0.04400716   -0.004014725     0.02789771     0.03002557   -0.001960425
    -0.04937395    -0.08204103    -0.07967260    -0.04421629   9.196252e-05
     0.02446362     0.01623034    -0.01570899    -0.04693484    -0.05792953
    -0.04502044    -0.02156318   -0.005759751   -0.006224697    -0.01917555
    -0.03251071    -0.03591349    -0.02973610    -0.02147916    -0.01945988
    -0.02501182    -0.03229803    -0.03200663    -0.02102348   -0.005777337
    0.002900211   -0.001414801    -0.01778642    -0.03507539    -0.04171186
    -0.03146300   -0.009436090    0.008709984    0.008885775    -0.01287323
    -0.04505465    -0.06683726    -0.06158371    -0.03206148    0.003044978
     0.01953768    0.006500966    -0.02725273    -0.05840699    -0.06646267
    -0.04616614    -0.01308703    0.009683114    0.006686268    -0.02137414
    -0.05568706    -0.07577065    -0.06999972    -0.04478581    -0.01825989
   -0.007731985    -0.01870813    -0.04264840    -0.06273461    -0.06570861
    -0.05107702    -0.02981161    -0.01516961    -0.01395119    -0.02248897
    -0.02986759    -0.02924823    -0.02162878    -0.01523909    -0.01710471
    -0.02672733    -0.03576126    -0.03432372    -0.01887685    0.001101634
     0.01204892    0.003908084    -0.02034463    -0.04498585    -0.05184797
    -0.03405035   -0.003614487     0.01759190     0.01356656    -0.01394790
    -0.04650952    -0.06124863    -0.04719955    -0.01294628     0.01856611
     0.02659607    0.004122891    -0.03459331    -0.06558777    -0.07045633
    -0.04807131    -0.01565590    0.006228929    0.005524350    -0.01267633
    -0.03273194    -0.04070258    -0.03207187    -0.01464169  -0.0008594077
   2.823770e-05    -0.01072715    -0.02530154    -0.03308799    -0.03011919
    -0.02014572    -0.01135487   -0.009311113    -0.01347736    -0.01885651
    -0.01837012    -0.01174599   -0.004905406   -0.005587230    -0.01618911
    -0.03135909    -0.03948859    -0.03249374    -0.01287368    0.006659713
     0.01198251   -0.002934319    -0.02906053    -0.04992551    -0.05150190
    -0.03232259   -0.005400501     0.01056322    0.003808890    -0.02221002
    -0.05090927    -0.06301583    -0.04943940    -0.01917073    0.008214844
     0.01522069   -0.001536270    -0.02992041    -0.05118192    -0.05211323
    -0.03370825   -0.009857658    0.003760789   -0.001763686    -0.02094906
    -0.03977112    -0.04701875    -0.03940061    -0.02450301    -0.01368085
    -0.01301936    -0.02135391    -0.03088776    -0.03334062    -0.02802239
    -0.01860475    -0.01313410    -0.01408729    -0.01818234    -0.01895592
    -0.01286074   -0.003155296    0.001778566   -0.005498660    -0.02260044
