     0.01000000     -0.6782557      0.7065712      -12345.00      -12345.00
       9.459999       19.45000       0.000000       10.47000       2.000000
      -12345.00       20.00000      -12345.00      -12345.00      -12345.00
      -12345.00      -12345.00      -12345.00      -12345.00      -12345.00
       17.78000      -12345.00      -12345.00      -12345.00      -12345.00
      -12345.00      -12345.00      -12345.00      -12345.00      -12345.00
      -12345.00       87.99997      -120.0000      -12345.00      -12345.00
       47.99997      -125.0000      -12345.00      -12345.00      -12345.00
       123.4560      -12345.00      -12345.00      -12345.00      -12345.00
      -12345.00      -12345.00      -12345.00      -12345.00      -12345.00
       4461.052      0.2719055       185.2047       40.18595      -12345.00
      -12345.00   6.391210e-06       0.000000       0.000000      -12345.00
      -12345.00      -12345.00      -12345.00      -12345.00      -12345.00
      -12345.00      -12345.00      -12345.00      -12345.00      -12345.00
      1981        88        10        38        14
         0         6         0         0      1000
    -12345    -12345    -12345    -12345    -12345
         1        50         9    -12345    -12345
    -12345    -12345        42    -12345    -12345
    -12345    -12345    -12345    -12345    -12345
    -12345    -12345    -12345    -12345    -12345
         1         1         1         1         0
CDV              K8108838
-12345  HOLE    IPD0    
XYZ     -12345  KT1     
-12345  -12345  -12345  
-12345  -12345  -12345  
-12345  -12345  ABKD    
USER0   -12345  Q       
-12345  -12345  -12345  
    -0.03529016     0.03358229     0.02745188    0.003451684    -0.01349560
    -0.01740862    -0.01125354   -0.002002739    0.004315746    0.006944830
    0.005727579    0.002581992  -0.0008587689   -0.001554546   -0.001265308
   -0.001669337  -0.0003349037  -0.0002541657   0.0003496903   0.0006778532
    0.001054026  -0.0001753342  -0.0008874346  -0.0002951053   0.0002896654
   0.0009299327   0.0003286302  -0.0003097201  -0.0005502221  -0.0004219551
   0.0003277956  -0.0003341661   0.0003114527   0.0001724359  -0.0005250177
  -0.0006410064   0.0006765219   0.0007398626  -0.0001628998  -0.0001539118
   1.022854e-05  -0.0003848307   0.0009513107   0.0003639645   8.401906e-05
   -0.001096262   -0.001312119  -0.0001864899    0.001165790   0.0009205050
   0.0002296252  -0.0002882920  -0.0009110712   0.0001162220   0.0002672295
   0.0001227825  -0.0004941082   0.0003485477  -0.0001724857   0.0009236671
   -0.001167248   0.0003704025  -6.077695e-05    0.001408780  -0.0007378990
  -0.0004877546   -0.001315834   0.0002261775   0.0007449422   0.0006083751
  -0.0002399380  -0.0001301975   0.0005531292   0.0006406358  -0.0002410858
   -0.001223830   -0.001170085   4.859216e-05    0.001793085   0.0005073741
  -0.0002137068  -0.0009043330  -0.0008336152    0.001117031   0.0008222893
   2.256114e-05  -0.0004844860   0.0003910188  -0.0007190726   -0.001182129
  -0.0002630049   9.568415e-05    0.001243169   0.0009271210    0.001111992
   -0.001255724   -0.001272484  -0.0004744834   0.0007071006   0.0005633442
   -0.001745102   -0.003532130   -0.009245557    -0.02641005    -0.04610454
    0.001296367      0.1656352      0.2815502      0.1245839     -0.2653381
     -0.5921341     -0.4906237     0.09374893      0.6830763      0.7065712
      0.1698028     -0.3701148     -0.4858576     -0.2570210   -0.007202521
      0.1202414      0.1925578      0.2211517     0.06661983     -0.2507117
     -0.3697023    -0.02643198      0.4677998      0.5254580    0.006408662
     -0.5791113     -0.6330572     -0.1267024      0.4134505      0.5181791
      0.2135923     -0.1571664     -0.3234673     -0.2008666      0.1000695
      0.3132837      0.2109764     -0.1468886     -0.4138625     -0.2983025
      0.1013602      0.4024058      0.3509685     0.03878683     -0.2352642
     -0.2574333    -0.08759771     0.04468549     0.03831074    -0.01246327
    0.001486653     0.09513289      0.1634049     0.09451337    -0.09905279
     -0.2546802     -0.1934846     0.07426063      0.3073849      0.2491823
    -0.08078694     -0.3602596     -0.2781844     0.09471399      0.3417911
      0.1989730     -0.1195493     -0.1989782     0.02635987      0.2199336
      0.1032100     -0.2067298     -0.3441783     -0.1452364      0.1605925
      0.2879734      0.2178953     0.09462646    -0.03720645     -0.2159022
     -0.3599550     -0.2702789     0.07716492      0.4100764      0.4395375
      0.1593164     -0.1989594     -0.4008461     -0.3507261    -0.08668964
      0.2375987      0.4001109      0.2981120     0.02276246     -0.2304073
     -0.3653606     -0.3728835     -0.1938428      0.1994790      0.5795592
      0.6071504      0.2111330     -0.3388860     -0.6782557     -0.5893840
     -0.1344995      0.3745548      0.5901757      0.4106404     0.01944806
     -0.3091263     -0.3957272     -0.2197531     0.07466787      0.2910822
      0.2924607     0.05838440     -0.2768218     -0.4427422     -0.2673069
      0.1373993      0.4907345      0.5404785      0.2266547     -0.2340126
     -0.5092740     -0.4270818     -0.1094076      0.1971435      0.3345141
      0.2755737     0.05667540     -0.1858589     -0.2605905     -0.1235222
     0.05732666      0.1144289     0.04790425    -0.04268377    -0.06628149
    0.006120086      0.1195174      0.1622317     0.07184175    -0.06403390
     -0.1230321    -0.07694385    0.005709663     0.04932467     0.01029838
    -0.06954531    -0.09618580    -0.03115734     0.03527163     0.01338428
    -0.03857982  -3.103167e-06      0.1195965      0.1819269     0.09570695
    -0.06727136     -0.1651831     -0.1319569   -0.006696001      0.1288992
      0.1781560     0.08162297     -0.1190918     -0.2616407     -0.2149030
   -0.007922307      0.1789325      0.1694101   -0.003620513     -0.1458821
    -0.09354632      0.1443273      0.3663375      0.3400519     0.03146985
     -0.3415710     -0.5133352     -0.3891680    -0.09572272      0.1979074
      0.3587193      0.3355002      0.1656834    -0.03506288     -0.1505594
     -0.1504744    -0.08436406   -0.008855779     0.04211489     0.05081126
   -0.003202502    -0.09992187     -0.1483181    -0.05143052      0.1471733
      0.2631184      0.1719744    -0.04709284     -0.2132439     -0.2376239
     -0.1581344    -0.03298837      0.1136575      0.2433881      0.2619455
      0.1467475    -0.03052655     -0.1826534     -0.2417742     -0.1765110
   -0.004085340      0.1766796      0.2297289      0.1025296     -0.1049578
     -0.2222740     -0.1590879    0.001812324     0.09576084     0.05581952
    -0.04198547    -0.06165099     0.04850943      0.1982518      0.2355041
     0.09229722     -0.1419245     -0.2992969     -0.2524350    -0.03007537
      0.1966543      0.2634313      0.1249028     -0.1035429     -0.2424150
     -0.1861675    0.002494037      0.1640551      0.1791721     0.06903844
    -0.04011263    -0.05822777    -0.01636292    0.005388187    -0.02510712
    -0.05302241    -0.02442317     0.03841771     0.06042151    0.005127817
    -0.07818399    -0.09812501    -0.02008249     0.09259785      0.1388232
     0.08363084    -0.02506450     -0.1024438    -0.09377330    -0.01452685
     0.04195216     0.01983931    -0.03703938    -0.03727515     0.03622459
      0.1159050      0.1069439   -0.004805170     -0.1338938     -0.1654270
    -0.05994924     0.08843013      0.1523517     0.08600782    -0.03662270
    -0.09846790    -0.06240553     0.02004573     0.06473838     0.03428864
    -0.04320483    -0.09713762    -0.07230909     0.01197138     0.08692044
      0.1117480     0.08770377     0.03423330    -0.03027691    -0.07580492
    -0.08706447    -0.07063840    -0.04384628   -0.002995374     0.04985225
     0.08309291     0.06742527     0.01054478    -0.04413238    -0.05175525
   -0.009573039     0.03654280     0.03829913    -0.01088723    -0.05927226
    -0.04741696    0.009620575     0.05698744     0.04928676     0.01302183
   -0.009634990   -0.008016611    -0.01076450    -0.03418371    -0.05659264
    -0.04965205   -0.001909228     0.05425938     0.07954870     0.06434261
     0.01731364    -0.03072901    -0.05357095    -0.04527792    -0.01622526
    0.006714717    0.008299696    0.001151326    0.006999813     0.02432852
     0.03257111     0.01376993    -0.01274021    -0.02685517    -0.02320272
    -0.01356332   -0.009026946   -0.009057155   -0.004376268     0.01033384
     0.02565166     0.03453089     0.03122125     0.01767203    -0.01205768
    -0.04015141    -0.04474992    -0.01554660     0.02213904     0.03311177
    0.002669608    -0.03568238    -0.04201411   -0.005897202     0.03285124
     0.03697722    0.009192089   -0.008399718    0.009508839     0.04005753
     0.03493350    -0.02199859    -0.08163305    -0.08235297   -0.008578084
     0.07870119      0.1005705     0.03547176    -0.05729003    -0.09903371
    -0.05868698     0.02847549     0.08950880     0.07248648   -0.002154488
    -0.06884613    -0.07030204    -0.01218536     0.04861492     0.05286672
    0.004082121    -0.04982887    -0.05233570   -0.004802963     0.05167060
     0.06265473     0.02377171    -0.02517676    -0.04199055    -0.01675624
     0.01739858     0.02303043    0.001048696    -0.02119857    -0.02219644
   -0.006313966     0.01586616     0.02537421    0.008663803    -0.02224195
    -0.03725185    -0.01890231     0.01738310     0.03259439     0.01882917
   -0.004443295    -0.01592335   -0.003777483     0.01934830     0.02589378
    0.006795178    -0.02510043    -0.04203923    -0.02590329    0.009404840
     0.03459915     0.03231817     0.01045981    -0.01226402    -0.02411962
    -0.02056862   -0.009147033    0.001889033    0.006405700    0.008908443
     0.01563345     0.01852199    0.009701574   -0.009682535    -0.02433946
    -0.01897792  -0.0005779946    0.009499316    0.006092780   -0.002968499
   0.0008864123     0.01730024     0.02928714     0.01296072    -0.02140181
    -0.04939462    -0.04479779   -0.008561671     0.03006882     0.04463521
     0.03246419     0.01266016   -0.008001926    -0.01832736    -0.01949465
    -0.01039105   -0.001452442    0.002394215   -0.001698695   -0.007657380
   -0.003991281     0.01124828     0.01951647    0.008787707    -0.01790464
    -0.02885601   -0.009753139     0.02125224     0.03338191     0.02076238
   -0.002432907    -0.01758086    -0.01828904    -0.01297105   -0.003534860
    0.003725411    0.008722503    0.007161906    0.006629243    0.006258538
    0.001815093   -0.008672757    -0.01894162    -0.01572968   -0.002966085
     0.01153806     0.01417633    0.008467286    0.002974723    0.002392991
    0.003717036   -0.001152971    -0.01144184    -0.01732759    -0.01209717
    0.006691372     0.02393586     0.02673634     0.01472437    -0.01005657
    -0.02623653    -0.02954217    -0.01689176   0.0001407573     0.01313221
     0.01963580     0.01790524     0.01076872  -0.0009992025    -0.01092066
    -0.01399706   -0.008436124    0.003800640     0.01334457    0.008147883
   -0.007982214    -0.02141654    -0.01619179    0.004531093     0.02432594
     0.02559835    0.008202060    -0.01515908    -0.02468889    -0.01449820
    0.006547210     0.01907769     0.01567676   0.0007567052   -0.008150429
   -0.005548931   0.0007796357   -0.002089405    -0.01316344    -0.01666715
   -0.006062073     0.01197010     0.01880472     0.01253164   0.0007352941
   -0.005186705   -0.004649611  -0.0001176076    0.004167565    0.003476628
  -0.0004982974   -0.009255395    -0.01169037   -0.008212054    0.002176859
     0.01444172     0.01697227    0.007237210   -0.005421464    -0.01444966
    -0.01293524   -0.005078300    0.002829509     0.01203854     0.01532085
    0.009307287   -0.002427575    -0.01542704    -0.01907858    -0.01239916
    0.003561324     0.01630654     0.01501023    0.004204332   -0.006743574
   -0.009637913  -0.0009011780    0.008217568    0.007196059   -0.002616678
    -0.01299386    -0.01353405   -0.002607063     0.01069289     0.01643329
     0.01417455    0.007942638   -0.002101532    -0.01139967    -0.01838273
    -0.01888522    -0.01068410    0.004658448     0.01872163     0.02343224
     0.01299698   -0.004356469    -0.01977846    -0.01890577   -0.003704234
     0.01372391     0.01670973    0.002042000    -0.01258096    -0.01315672
    0.003048171     0.01757691     0.01710927   -0.001567054    -0.01951269
    -0.02136765   -0.003880760     0.01634414     0.01997649    0.005022502
    -0.01691983    -0.02300112    -0.01047431     0.01211528     0.02230285
     0.01541853   -0.001421155    -0.01266736    -0.01002398    0.001048255
    0.007170167    0.004259868   -0.003268577   -0.004425446    0.001201247
    0.006564251    0.001700693   -0.007547970    -0.01036513   -0.005470858
    0.002218489    0.006575582    0.006003360    0.001249641   0.0009991775
   0.0007904385    0.002752186    0.002941614  -0.0008781762   -0.005631690
   -0.007050588   -0.001429752    0.002515745    0.001618436   -0.002437224
   -0.003030475    0.002002379    0.008956068    0.007035249   -0.001047063
    -0.01021570   -0.007242494    0.001769641    0.007251344    0.004022330
   -0.003242122   -0.006286990   -0.001928488    0.004562542    0.007476774
    0.003909432   -0.003796106   -0.008333888   -0.007540782  -0.0007962161
    0.004843582    0.006585259    0.004474022   0.0004662001   0.0004799890
   0.0004363249   -0.002536342   -0.004756222   -0.008043410   -0.006043376
    0.001369256    0.009661226     0.01267003    0.006776070   -0.001147705
   -0.007582704   -0.008856397   -0.006430314  -0.0007847433    0.004769047
    0.006884748    0.003230137   -0.003621841   -0.004894513   -0.002663126
    0.002157656    0.004114537    0.002550682   -0.001243053   -0.001987104
   -0.001720017   0.0002210949    0.002229678    0.002611568    0.003035455
   -0.001055752   -0.006932184    -0.01161722   -0.006682711    0.003351296
     0.01563939     0.01937816    0.009284129   -0.009985100    -0.02027083
    -0.01702669   -0.001470358     0.01148007     0.01417764    0.007131886
  -0.0009341980   -0.004074502   -0.005233958   -0.006744337   -0.005847238
  -0.0003284793    0.005044329    0.008643777    0.007999556   0.0002773264
   -0.007137717   -0.006760276   -0.001073625    0.005559104    0.004835932
   -0.002604372   -0.007428736   -0.006904182    0.001044204    0.007063634
    0.007657689    0.002080728   -0.004452285   -0.004640387   -0.001149828
    0.002897995    0.005009430    0.001384772   -0.003042120   -0.005243962
   -0.003321879  -0.0001732343    0.003918227    0.004579100   0.0006077816
   -0.003171459   -0.001762839  -0.0006833052   0.0006785906   -0.001563585
   -0.001969088    0.001788978    0.004585333    0.005691588    0.001622052
   -0.004272255   -0.006031822  -0.0007168893    0.002369720    0.002481860
   -0.001833395   -0.004056297   -0.002837960    0.001289253    0.003078052
    0.003172839  -0.0005734982   -0.001993734   0.0009068978    0.002341484
    0.003963224   0.0001344259   -0.003454015   -0.005458827   -0.003379576
    0.001804038    0.005639126    0.003981285  -0.0003742427   -0.002995849
   -0.003074871   -0.001133556    0.001510818    0.001313745   -0.001966613
   -0.003259258   -0.003153880   0.0006167749    0.005245304    0.008034291
    0.005837198   -0.001139358   -0.007953425   -0.007897944   -0.004582749
    0.002800738    0.006259019    0.003259526   -0.002056129   -0.003364893
   0.0009422568    0.004232098    0.004107201    0.001334516   -0.002108003
   -0.005048255   -0.005490654   -0.003309975   0.0005887517    0.003206599
    0.004545857   0.0005876145   -0.001486972  -6.487768e-05    0.004324349
    0.007736627    0.003384728   -0.003923846    -0.01110925    -0.01111358
   -0.004891362    0.001809435    0.007339810    0.008409813    0.006232459
   0.0009247996   -0.002577823   -0.005071912   -0.002488207    0.001177120
    0.003364901    0.002052649   -0.001208499   -0.004706849   -0.007181418
   -0.002613790    0.003420163    0.007285018    0.006595208    0.002648071
   -0.002865974   -0.004225062   -0.002172579  -0.0001884687  -0.0007061699
   -0.002242919   -0.003619490  -9.615207e-05    0.003878727    0.006049918
    0.005185873    0.001134567   -0.003468621   -0.005933769   -0.005097043
   -0.001911069    0.002679993    0.006731391    0.004778048  -0.0007262072
   -0.005838037   -0.006375909   -0.002576689    0.001992728    0.005071899
    0.005078245    0.002030677  -9.430933e-05   -0.002949433   -0.002626000
  -0.0002880633  -0.0008349376  -0.0009886526   -0.001295667  -0.0005198186
    0.002979653    0.004319923    0.003124925    0.001308894   -0.003337000
   -0.004119574   -0.005394567   -0.003460173  -0.0004003682    0.002338658
    0.003995207    0.004483187    0.003707588   0.0007625844   3.691021e-05
