     0.09765625   3.626911e-05      0.9854721      -12345.00      -12345.00
       0.000000       50.00000       0.000000       10.47000       2.000000
      -12345.00       20.00000      -12345.00      -12345.00      -12345.00
      -12345.00      -12345.00      -12345.00      -12345.00      -12345.00
       17.78000      -12345.00      -12345.00      -12345.00      -12345.00
      -12345.00      -12345.00      -12345.00      -12345.00      -12345.00
      -12345.00       87.99997      -120.0000      -12345.00      -12345.00
       47.99997      -125.0000      -12345.00      -12345.00      -12345.00
       123.4560      -12345.00      -12345.00      -12345.00      -12345.00
      -12345.00      -12345.00      -12345.00      -12345.00      -12345.00
       4461.052      0.2719055       185.2047       40.18595       9.459999
     0.01000000     0.05504056       0.000000       0.000000      -12345.00
      -12345.00      -12345.00      -12345.00      -12345.00      -12345.00
      -12345.00      -12345.00      -12345.00      -12345.00      -12345.00
      1981        88        10        38        14
         0         6         0         0       513
      1000    -12345    -12345    -12345    -12345
         1        50         9    -12345    -12345
    -12345    -12345        42    -12345    -12345
    -12345    -12345    -12345    -12345    -12345
    -12345    -12345    -12345    -12345    -12345
         1         1         1         1         0
CDV              K8108838
-12345  HOLE    IPD0    
XYZ     -12345  KT1     
-12345  -12345  -12345  
-12345  -12345  -12345  
-12345  -12345  ABKD    
USER0   -12345  Q       
-12345  -12345  -12345  
      0.9854721     0.02391686     0.03012128     0.04279056     0.04296539
     0.03107443     0.02685322     0.02183193    0.002607160     0.02884036
     0.03815777     0.08620087     0.02338047     0.04742498     0.04300592
     0.08988398     0.05363869     0.04742863     0.03106814     0.05472676
     0.01194933     0.02390621      0.1171357      0.1204467      0.1402259
      0.1469834      0.1403978      0.2108849      0.1662924      0.1073367
      0.1111421      0.1180490      0.1896607      0.2349201      0.2700735
      0.3222434      0.3125045      0.2343597      0.2196836      0.1633514
      0.2885194      0.2847072      0.2397279      0.2526431      0.2209928
      0.2518852      0.2912158      0.3263921      0.3140126      0.3642648
      0.3026558      0.1228111      0.1030137      0.1299422      0.1829440
      0.3400174      0.4848751      0.4074720      0.4254242      0.4221942
      0.4007759      0.3808908      0.3734494      0.2814342      0.1990340
      0.1577796     0.08343986     0.08834258      0.1033870      0.2178310
      0.2508617      0.1710152     0.09360643      0.1292883      0.1449056
      0.1579048      0.1687760      0.1519774      0.1511647      0.1519599
      0.1741139      0.1973277      0.1160746     0.04538017     0.03373970
     0.04485371     0.08001184     0.08603668     0.03746233      0.1189258
      0.2687224      0.3240705      0.2994127      0.2399580      0.1989470
      0.1757872      0.1101416      0.1257018      0.1697393      0.1633487
     0.06914327     0.03550082      0.1339670      0.1594655      0.1367035
      0.1541753     0.08771650     0.04618487     0.05288706     0.09922257
     0.08491416     0.05615407     0.06302142     0.06647449     0.08883145
     0.05545421     0.05080675     0.04026349     0.03920552     0.04828779
      0.1024051      0.1571480      0.1757519      0.1511295      0.1205031
      0.1075043      0.1486885      0.1928984      0.1997083      0.1696856
      0.1265635      0.1359263      0.1705049      0.1885004      0.1771404
      0.1250461      0.1125831      0.1056430      0.1274349      0.1186230
      0.1153876      0.1236475      0.1639715      0.2180061      0.2449472
      0.2104529      0.1300243      0.1029285     0.09232941     0.09780085
     0.06647823     0.06823104      0.1094673      0.1337078      0.1088489
     0.07161691      0.1026783     0.09998349     0.09923919     0.08610874
     0.01264961     0.04616217     0.08591306      0.1181711      0.1409191
      0.1020057     0.04352311     0.07297402     0.07785264     0.06534192
     0.07255022     0.04815905     0.09230375      0.1415522      0.1204508
     0.06173130     0.02297435     0.03178745     0.04182036     0.05956800
     0.05435398     0.04722185     0.05171054     0.04995599     0.04680587
     0.04548900     0.06358692     0.05711623     0.05050503     0.04708975
     0.02900100     0.02662525     0.03052865     0.02146921     0.01679739
     0.03026832     0.03641352     0.04577864     0.05684455     0.05330768
     0.05310661     0.05189158     0.04628235     0.03909278     0.03514661
     0.03669744     0.03480946     0.02979394     0.01987194     0.01690556
     0.01857067    0.007219173     0.01929156     0.02456337     0.02312246
     0.02194355     0.02419312     0.02968116     0.03755222     0.04472045
     0.04066546     0.03310116     0.02383585     0.02385350     0.02248775
     0.02313644     0.02481855     0.02106763     0.01461989    0.007536464
    0.004012864    0.001959161    0.001872477    0.004097423    0.008852922
     0.01345005     0.01612564     0.01438271    0.008521014    0.004621069
    0.003824028    0.006216467    0.009466096    0.009725237    0.007413880
    0.004543816    0.003926847    0.003222599    0.001474361    0.001204477
    0.001702968    0.001322290    0.003005251    0.004297805    0.003593404
    0.003853728    0.003856565    0.003529759    0.004864546    0.006536521
    0.006099397    0.005085997    0.004138541    0.003868196    0.003832504
    0.002312690    0.002032257    0.003499148    0.002464080   0.0003463861
   0.0005925577    0.001329078    0.002367400    0.001474715    0.001519445
    0.002856218    0.002620152    0.001862565    0.001919031    0.002904320
    0.002744837    0.001172785    0.001398425    0.002940231    0.002542820
    0.001129046   0.0007197140    0.002165466    0.001574092    0.001024991
    0.001363180    0.002333983    0.002889528    0.002759630    0.002109198
    0.001859992    0.001865344    0.001094472   0.0005614975   0.0004480284
   0.0006114704   0.0008634433    0.001298574    0.001526394    0.001770007
    0.001415505    0.001188283   0.0008905019   0.0007139931   0.0009190256
   0.0002441071    0.001525056    0.002103725    0.002137127    0.002006336
    0.001033494   0.0002452770    0.001062864    0.001421247    0.001520857
    0.001628683    0.001729837    0.001652083    0.001104708   0.0003490068
   0.0002162722   0.0009553421    0.001636507    0.001506637    0.001037983
   0.0009847312   0.0009079098   0.0004320720   0.0004017942   0.0008811768
   0.0007715815   0.0004849655   8.809160e-05   0.0005415504   0.0006926750
   0.0005345497   0.0003787167   0.0004618538   0.0006555872   0.0003204250
   8.298681e-05   0.0003862428   0.0001550144   0.0004698910    0.001104344
   0.0008941271    0.001040647   0.0007975931   0.0005145401   0.0009874169
   0.0009758027   0.0005040932   0.0008080143    0.001250591    0.001451855
   0.0007913554    0.001204590    0.001012234   0.0009160214   0.0009340632
   0.0006775269   0.0006238336   0.0008229550    0.001305574    0.001151402
   0.0008923094   0.0007395960   0.0003011276   0.0004564331   0.0005540263
   0.0007341334   0.0007627154   0.0004724476   0.0003605325   0.0004020311
   0.0004690591   0.0003484389   6.041723e-05   0.0001224538   9.990361e-05
   3.626911e-05   0.0002827600   0.0005961825   0.0005389242   0.0002242394
   0.0004623949   0.0004924525   0.0006575944   0.0003749277   0.0004620818
   0.0008583399   0.0005645307   0.0007915901   0.0007297280   0.0009581881
   0.0009348709    0.001042769   0.0008058916   0.0008599851   0.0009597325
   0.0009420327   0.0007969349    0.001072729    0.001058795    0.001030080
    0.001005213   0.0008531169   0.0008313279   0.0008510487   0.0003895095
   0.0006091667   0.0008386991   0.0008028242   0.0006066267   0.0004963747
   0.0002325963   0.0003469887   0.0003597516   0.0003136401   0.0002861152
   0.0001475298   0.0001814010   0.0002330917   0.0002762695   0.0003980279
   0.0003830200   0.0004477432   0.0002920835   0.0004163008   0.0005929717
   0.0003858743   0.0007431505   0.0008132926   0.0007710481   0.0005389226
   0.0008085205   0.0008868824   0.0005186864   0.0009321224   0.0008257539
   0.0008093510   0.0008740434   0.0007558891    0.001067484   0.0007173006
    0.001066702   0.0008234475   0.0006627638   0.0007043472   0.0009505094
   0.0008416878   0.0005315453   0.0004576615   0.0006478557   0.0007846433
   0.0003864011   0.0006433262   0.0007531762   0.0003858832   0.0003731729
   0.0002983366   0.0001544819   0.0002302265   7.593976e-05   5.521082e-05
   0.0001621871   0.0002336937   0.0001662628   0.0004339654   7.679118e-05
   0.0002855887   0.0005838723   0.0005259415   0.0004023759   0.0006610469
   0.0009869152   0.0005298615   0.0006775538   0.0007011552   0.0007393476
   0.0008537054   0.0008261146   0.0008878524   0.0007244989   0.0006147998
   0.0008310339   0.0009315071   0.0009717654   0.0008061019   0.0009474087
   0.0009691291   0.0009598683   0.0008544563   0.0008817413   0.0006546543
   0.0007653376   0.0005753310   0.0004828178   0.0004572471   0.0004249823
   0.0003593111   0.0004832088   0.0004411760   0.0003082838   0.0003063649
   9.136056e-05   0.0004703578   0.0002560206
