     0.01000000     -0.1917646      0.1925886      -12345.00      -12345.00
       9.459999       19.45000       0.000000       10.47000       2.000000
      -12345.00       20.00000      -12345.00      -12345.00      -12345.00
      -12345.00      -12345.00      -12345.00      -12345.00      -12345.00
       17.78000      -12345.00      -12345.00      -12345.00      -12345.00
      -12345.00      -12345.00      -12345.00      -12345.00      -12345.00
      -12345.00       87.99997      -120.0000      -12345.00      -12345.00
       47.99997      -125.0000      -12345.00      -12345.00      -12345.00
       123.4560      -12345.00      -12345.00      -12345.00      -12345.00
      -12345.00      -12345.00      -12345.00      -12345.00      -12345.00
       4461.052      0.2719055       185.2047       40.18595      -12345.00
      -12345.00   9.498475e-06       0.000000       0.000000      -12345.00
      -12345.00      -12345.00      -12345.00      -12345.00      -12345.00
      -12345.00      -12345.00      -12345.00      -12345.00      -12345.00
      1981        88        10        38        14
         0         6         0         0      1000
    -12345    -12345    -12345    -12345    -12345
         1        50         9    -12345    -12345
    -12345    -12345        42    -12345    -12345
    -12345    -12345    -12345    -12345    -12345
    -12345    -12345    -12345    -12345    -12345
         1         1         1         1         0
CDV              K8108838
-12345  HOLE    IPD0    
XYZ     -12345  KT1     
-12345  -12345  -12345  
-12345  -12345  -12345  
-12345  -12345  ABKD    
USER0   -12345  Q       
-12345  -12345  -12345  
  -4.417321e-08  -2.855044e-07  -7.579532e-07  -8.489279e-07   5.651764e-07
   3.639140e-06   6.015759e-06   3.643717e-06  -5.339771e-06  -1.653569e-05
  -1.979878e-05  -6.435276e-06   2.104197e-05   4.531679e-05   4.322617e-05
   4.187401e-06  -5.505938e-05  -9.401989e-05  -7.374900e-05   1.044348e-05
   0.0001139667   0.0001633065   0.0001053621  -4.577940e-05  -0.0002021111
  -0.0002500380  -0.0001294645   0.0001096492   0.0003206129   0.0003474347
   0.0001360317  -0.0002080061  -0.0004666906  -0.0004455736  -0.0001149849
   0.0003436212   0.0006333663   0.0005323516   5.771530e-05  -0.0005151275
  -0.0008098030  -0.0005949101   4.139858e-05   0.0007165298   0.0009822788
   0.0006214375  -0.0001836717  -0.0009373652   -0.001135726  -0.0006029463
   0.0003654220    0.001163615    0.001255547   0.0005346132  -0.0005781003
   -0.001379161   -0.001329301  -0.0004165044   0.0008089765    0.001567375
    0.001348112   0.0002538687   -0.001042179   -0.001712817   -0.001307855
  -5.689666e-05    0.001260273    0.001803011    0.001209783  -0.0001602660
   -0.001446083   -0.001829776   -0.001060482   0.0003808092    0.001584342
    0.001790161   0.0008714909  -0.0005867705   -0.001663344   -0.001687041
  -0.0006582859   0.0007609928    0.001676369    0.001528866   0.0004385154
  -0.0008890348   -0.001622288   -0.001328569  -0.0002301018   0.0009605263
    0.001505528    0.001102257   4.952330e-05  -0.0009701771   -0.001335669
  -0.0008676142   8.985418e-05   0.0009182707    0.001126366   0.0006420526
  -0.0001790113  -0.0008103881  -0.0008938734  -0.0004413772   0.0002129248
   0.0006544144   0.0006516988   0.0002749970  -0.0001881263  -0.0004439851
  -0.0003832897  -0.0001284808   8.547600e-05   0.0001078193  -1.815046e-06
  -2.752556e-05   0.0001882216   0.0005352661   0.0006401339   0.0001556484
  -0.0008451893   -0.001720430   -0.001599915  -8.917821e-05    0.002169325
    0.003631654    0.002814035  -0.0004573457   -0.004459892   -0.006343601
   -0.004040183    0.001892430    0.007978179    0.009727954    0.004807848
   -0.004686061    -0.01280676    -0.01337101   -0.004495007    0.009188620
     0.01872978     0.01662873    0.002512254    -0.01547243    -0.02522451
    -0.01876681    0.001523747     0.02326128     0.03154829     0.01913311
   -0.007675826    -0.03196904    -0.03689302    -0.01729323     0.01568003
     0.04081561     0.04051818     0.01307723    -0.02500620    -0.04893543
    -0.04182908   -0.006586777     0.03491285     0.05545631     0.04043837
   -0.001789654    -0.04448762    -0.05957975    -0.03624408     0.01135574
     0.05271417     0.06070382     0.02951495    -0.02114619    -0.05862537
    -0.05856665    -0.02088730     0.03009031     0.06148950     0.05329165
     0.01123565    -0.03719463    -0.06089498    -0.04532791   -0.001540963
     0.04164460     0.05676835     0.03538773   -0.007215129    -0.04289456
    -0.04938452    -0.02435640     0.01418090     0.04073319     0.03931006
     0.01316091    -0.01873203    -0.03527365    -0.02730090   -0.002654063
     0.02052181     0.02690950     0.01419882   -0.006477826    -0.01950506
    -0.01626243  -0.0008414260     0.01378688     0.01594833    0.004119847
    -0.01203619    -0.01912496    -0.01039562    0.008680653     0.02390948
     0.02265125    0.003560275    -0.02139563    -0.03453383    -0.02477241
    0.003819419     0.03349774     0.04395774     0.02604378    -0.01111577
    -0.04475423    -0.05249715    -0.02706540     0.01791697     0.05525725
     0.06066675     0.02836335    -0.02410293    -0.06538768    -0.06904483
    -0.03025014     0.02988157     0.07571356     0.07810594     0.03271700
    -0.03575731    -0.08684769    -0.08807826    -0.03539886     0.04243038
     0.09928052     0.09883015     0.03760057    -0.05064585     -0.1132161
     -0.1098177    -0.03839569     0.06102325      0.1284679      0.1201364
     0.03680206    -0.07388727     -0.1444259     -0.1286516    -0.03198164
     0.08914281      0.1600886      0.1341510     0.02338929     -0.1062410
     -0.1741635     -0.1355007    -0.01087398      0.1242021      0.1852031
      0.1318139   -0.005226873     -0.1416616     -0.1917646     -0.1226113
     0.02404458      0.1569779      0.1925886      0.1079376    -0.04421873
     -0.1684168     -0.1868132    -0.08845552     0.06400094      0.1743929
      0.1741869     0.06547816    -0.08142548     -0.1737097     -0.1551879
    -0.04086915     0.09455035      0.1657487      0.1310043     0.01681732
     -0.1017279     -0.1505893     -0.1034158    0.004438581      0.1018486
      0.1290573     0.07462105    -0.02087505    -0.09450874     -0.1026807
    -0.04702229     0.03091069     0.08008523     0.07355776     0.02297475
    -0.03360248    -0.05973610    -0.04415290   -0.004519289     0.02877849
     0.03529298     0.01702353   -0.006854209    -0.01706262   -0.009055366
    0.005470571     0.01038184  -0.0001809765    -0.01644879    -0.02141707
   -0.006108719     0.02098661     0.03871894     0.02953846   -0.005125297
    -0.04299476    -0.05554478    -0.02933754     0.02175189     0.06368466
     0.06524773     0.02118031    -0.04161098    -0.08063576    -0.06687558
   -0.006271586     0.06219129     0.09181987     0.06033472    -0.01347580
    -0.08093839    -0.09586889    -0.04642502     0.03566430     0.09557229
     0.09225141     0.02674186    -0.05771475     -0.1043717    -0.08132493
   -0.003454299     0.07720050      0.1063764     0.06426373    -0.02098035
    -0.09213343     -0.1014714    -0.04289220     0.04410401      0.1011650
     0.09036300     0.01945691    -0.06373000     -0.1037140    -0.07447287
    0.003642665     0.07819062      0.1000199     0.05575648    -0.02414487
    -0.08653183    -0.09109957    -0.03644957     0.04020996     0.08862027
     0.07859601     0.01876692    -0.05064799    -0.08512731    -0.06452939
   -0.004605933     0.05504268     0.07739075     0.05100270   -0.004685129
    -0.05375395    -0.06719323    -0.03992238    0.008442499     0.04781611
     0.05650000     0.03276234   -0.006732949    -0.03876621    -0.04719289
    -0.03038925   0.0003193370     0.02843049     0.04083306     0.03297174
    0.009459431    -0.01868142    -0.03847189    -0.03998375    -0.02088494
     0.01118548     0.04052197     0.05029212     0.03210368   -0.007175167
    -0.04670916    -0.06232364    -0.04138750    0.007285705     0.05612601
     0.07429482     0.04736981    -0.01148468    -0.06737459    -0.08445928
    -0.04921724     0.01909598     0.07876359     0.09133429     0.04672444
    -0.02890387    -0.08853837    -0.09389485    -0.04033354     0.03932430
     0.09512319     0.09171466     0.03107337    -0.04862344    -0.09734028
    -0.08502845    -0.02042058     0.05515734     0.09457675     0.07470447
     0.01009695    -0.05760247    -0.08687443    -0.06212808   -0.001832147
     0.05514025     0.07492756     0.04901419   -0.002874011    -0.04757465
    -0.05999612    -0.03717808    0.002960201     0.03537225     0.04375037
     0.02829783    0.002048623    -0.01961464    -0.02806463    -0.02370054
    -0.01197464    0.001870017     0.01478473     0.02418900     0.02599425
     0.01599006   -0.005495500    -0.02992215    -0.04271663    -0.03201322
    0.001312904     0.04037426     0.06034419     0.04441458   -0.002729677
    -0.05439100    -0.07690127    -0.05181167    0.009546593     0.07033664
     0.09048838     0.05339933    -0.02090285    -0.08630504    -0.09951860
    -0.04904087     0.03539331      0.1003571      0.1029025     0.03926869
    -0.05124940     -0.1107518     -0.1001654    -0.02520796     0.06655235
      0.1161454     0.09149513    0.008442323    -0.07945199     -0.1157401
    -0.07771563    0.009168903     0.08837862      0.1093754     0.06019083
    -0.02570824    -0.09222767    -0.09754755    -0.04066597     0.03942404
     0.09048843     0.08135046     0.02106027    -0.04893751    -0.08330145
    -0.06233980   -0.003234367     0.05340571     0.07143514     0.04234121
    -0.01123055    -0.05261188    -0.05618106    -0.02322749     0.02121224
     0.04697265     0.03918528    0.006696417    -0.02616410    -0.03746769
    -0.02224352    0.005921204     0.02615773     0.02550402    0.007085185
    -0.01380349    -0.02185044    -0.01273301    0.004829621     0.01671669
     0.01438483   0.0008419703    -0.01247816    -0.01502242   -0.005229383
    0.008658068     0.01538722    0.009608857   -0.004021366    -0.01461819
    -0.01367115   -0.001755442     0.01185517     0.01638175    0.007991460
   -0.007046181    -0.01702927    -0.01384521   0.0005513914     0.01529165
     0.01871870    0.007449683    -0.01057709    -0.02165966    -0.01660890
    0.001894708     0.02061283     0.02517471     0.01091707    -0.01294223
    -0.02928359    -0.02531766   -0.002345202     0.02428136     0.03548441
     0.02207922   -0.008022127    -0.03451970    -0.03851590    -0.01594897
     0.01886752     0.04246458     0.03816547    0.007838761    -0.02881991
    -0.04727598    -0.03472447    0.001047854     0.03663820     0.04857039
     0.02893696   -0.009384564    -0.04137541    -0.04646131    -0.02188797
     0.01590494     0.04250058     0.04153396     0.01485078    -0.01957197
    -0.03996353    -0.03475931   -0.009112227     0.01971641     0.03419804
     0.02736004    0.005797182    -0.01612848    -0.02606475    -0.02064613
   -0.005715350    0.009089617     0.01673854     0.01583930    0.009249939
   0.0006615031   -0.007553158    -0.01390820    -0.01630250    -0.01202362
  -0.0001750819     0.01543741     0.02630113     0.02367336    0.005318244
    -0.02054873    -0.03826942    -0.03423112   -0.007080068     0.02888291
     0.05094570     0.04243253    0.005097716    -0.03963939    -0.06293567
    -0.04728531   0.0005083442     0.05166866     0.07288098     0.04819354
   -0.009144522    -0.06361131    -0.07962838    -0.04503483     0.01981547
     0.07406738     0.08237562     0.03817824    -0.03124636    -0.08177037
    -0.08077209    -0.02843990     0.04203990     0.08574402     0.07496292
     0.01698256    -0.05084935    -0.08542362    -0.06557124   -0.005171642
     0.05654524     0.08072595     0.05362177   -0.005592317    -0.05835389
    -0.07206003    -0.04041646     0.01404385     0.05595162     0.06027760
     0.02737632    -0.01920668    -0.04950472    -0.04657021    -0.01586893
     0.02051242     0.03964915     0.03232451    0.007043267    -0.01786748
    -0.02741131    -0.01895402   -0.001693626     0.01165953     0.01408122
    0.007731176   0.0001712763   -0.002703544   -0.001055722   0.0003597121
   -0.002352294   -0.007863678    -0.01032937   -0.004733232    0.007662149
     0.01872537     0.01895699    0.005264417    -0.01515372    -0.02854629
    -0.02405859   -0.002294106     0.02363033     0.03613654     0.02530151
   -0.003423027    -0.03180008    -0.04059720    -0.02282052     0.01082422
     0.03844248     0.04142697     0.01718714    -0.01868435    -0.04256375
    -0.03857531   -0.009323357     0.02577800     0.04351727     0.03243528
   0.0003736683    -0.03103481    -0.04107445    -0.02377984    0.008446363
     0.03367009     0.03544213     0.01365520    -0.01600397    -0.03327634
    -0.02722742   -0.003244795     0.02138869     0.02986653     0.01735335
   -0.006282892    -0.02402346    -0.02386417   -0.006935032     0.01392304
     0.02373151     0.01604102   -0.002866374    -0.01895866    -0.02074938
   -0.007410015     0.01099289     0.02104430     0.01568514  -0.0009111557
    -0.01662249    -0.02024020   -0.009430431    0.007846454     0.01926923
     0.01699536    0.003039263    -0.01250027    -0.01884060    -0.01208238
    0.002413232     0.01427336     0.01564457    0.006490362   -0.005974913
    -0.01294001    -0.01034421   -0.001289864    0.006943571    0.008675330
    0.003865881   -0.002511394   -0.004959654   -0.002029665    0.002725870
    0.004102850   5.312450e-05   -0.006145321   -0.008369520   -0.002978072
    0.007360294     0.01480796     0.01214533  -0.0009983305    -0.01653147
    -0.02286019    -0.01339423    0.007571764     0.02647237     0.02928747
     0.01180248    -0.01612915    -0.03608092    -0.03328732   -0.007441729
     0.02577572     0.04427947     0.03437024   0.0007604705    -0.03544668
    -0.05014939    -0.03242072    0.007472433     0.04404061     0.05304541
     0.02771017    -0.01626554    -0.05055754    -0.05267476    -0.02086053
     0.02453024     0.05422326     0.04913167     0.01276507    -0.03121617
    -0.05458400    -0.04288404   -0.004477100     0.03544087     0.05156205
     0.03471544   -0.002920421    -0.03659967    -0.04546640    -0.02562851
    0.008449739     0.03444185     0.03695524     0.01672069    -0.01135976
    -0.02910172    -0.02695439   -0.009048808     0.01121785     0.02108107
     0.01654337    0.003500730   -0.007961102    -0.01118747   -0.006825530
  -0.0006902460    0.001901960   0.0004369891   -0.001202314   0.0008866678
    0.006311465     0.01006722    0.006766358   -0.003986432    -0.01577526
    -0.01926590   -0.009404381    0.009530049     0.02543980     0.02626805
    0.009015418    -0.01676250    -0.03423698    -0.03045390   -0.005864783
     0.02472984     0.04120903     0.03154363   0.0005435893    -0.03239910
    -0.04562137    -0.02962208    0.006111583     0.03878539     0.04704515
     0.02511829    -0.01312713    -0.04307076    -0.04540213    -0.01874476
     0.01951496     0.04470097     0.04096680     0.01140385    -0.02439462
    -0.04344864    -0.03432522   -0.004071824     0.02710088     0.03943525
     0.02629589   -0.002324427    -0.02726258    -0.03310920    -0.01782305
    0.007022067     0.02484294     0.02518296    0.009855986   -0.009514073
    -0.02013690    -0.01653842   -0.003230683    0.009606581     0.01372674
    0.008113188   -0.001431223   -0.007434739   -0.006401766  -0.0007823326
    0.003793551    0.003435765  -0.0009468091   -0.004749107   -0.003838301
    0.001715953    0.007441309    0.008029365    0.001857715   -0.007201623
    -0.01232850   -0.008909769    0.001592173     0.01216688     0.01507230
    0.007554813   -0.005770878    -0.01583293    -0.01541654   -0.004411584
    0.009855060     0.01759615     0.01341147   0.0001445489    -0.01304867
    -0.01710462   -0.009402381    0.004455103     0.01468762     0.01430168
    0.003980937   -0.008574922    -0.01432578   -0.009430362    0.002095006
     0.01148829     0.01179199    0.002999499   -0.008001869    -0.01264930
   -0.007211428    0.004283394     0.01295743     0.01176302   0.0009891156
    -0.01160310    -0.01632075   -0.008822779    0.006241968     0.01814030
     0.01767322    0.004110551    -0.01370146    -0.02317536    -0.01687106
    0.001839587     0.02056112     0.02617953     0.01406281   -0.008310065
    -0.02605005    -0.02688114   -0.009669309     0.01449141     0.02955198
     0.02529889    0.004329028    -0.01958559    -0.03068320    -0.02173837
    0.001184262     0.02290826     0.02934145     0.01675263   -0.006060860
    -0.02397662    -0.02571916    -0.01107144    0.009558991     0.02257184
     0.02027967    0.005508421    -0.01109998    -0.01876807    -0.01369933
  -0.0008579685     0.01034224     0.01292413    0.006782775   -0.002205068
