     0.01000000      -1.605222       1.422131      -12345.00      -12345.00
       9.459999       19.45000       0.000000       10.47000       2.000000
      -12345.00       20.00000      -12345.00      -12345.00      -12345.00
      -12345.00      -12345.00      -12345.00      -12345.00      -12345.00
       17.78000      -12345.00      -12345.00      -12345.00      -12345.00
      -12345.00      -12345.00      -12345.00      -12345.00      -12345.00
      -12345.00       87.99997      -120.0000      -12345.00      -12345.00
       47.99997      -125.0000      -12345.00      -12345.00      -12345.00
       123.4560      -12345.00      -12345.00      -12345.00      -12345.00
      -12345.00      -12345.00      -12345.00      -12345.00      -12345.00
       4461.052      0.2719055       185.2047       40.18595      -12345.00
      -12345.00    -0.09850699       0.000000       0.000000      -12345.00
      -12345.00      -12345.00      -12345.00      -12345.00      -12345.00
      -12345.00      -12345.00      -12345.00      -12345.00      -12345.00
      1981        88        10        38        14
         0         6         0         0      1000
    -12345    -12345    -12345    -12345    -12345
         1        50         9    -12345    -12345
    -12345    -12345        42    -12345    -12345
    -12345    -12345    -12345    -12345    -12345
    -12345    -12345    -12345    -12345    -12345
         1         1         1         1         0
CDV              K8108838
-12345  HOLE    IPD0    
XYZ     -12345  KT1     
-12345  -12345  -12345  
-12345  -12345  -12345  
-12345  -12345  ABKD    
USER0   -12345  Q       
-12345  -12345  -12345  
    -0.08253969    -0.06395496    -0.06877566    -0.08879656     -0.1099533
     -0.1202305     -0.1148804    -0.09920330    -0.08463219    -0.07810560
    -0.08160219    -0.09082076     -0.1002232     -0.1029483    -0.09939342
    -0.09500172    -0.09039266    -0.08950186    -0.09015295    -0.09097801
    -0.09020281    -0.09063478    -0.09248408    -0.09457501    -0.09646439
    -0.09620845    -0.09478893    -0.09268727    -0.09126564    -0.09177979
    -0.09321485    -0.09659619    -0.09718615    -0.09511878    -0.09181824
    -0.08895455    -0.08665495    -0.08784700    -0.09275945    -0.09755866
     -0.1000666     -0.1007220    -0.09724230    -0.09479266    -0.09366396
    -0.09609070     -0.1000318     -0.1024460     -0.1017784     -0.1001157
    -0.09854533    -0.09794868    -0.09958653     -0.1005142     -0.1015649
     -0.1021396     -0.1031435     -0.1024008     -0.1030171     -0.1016663
     -0.1043701     -0.1042813     -0.1054753     -0.1033537     -0.1043440
     -0.1039040     -0.1052552     -0.1043415     -0.1031372     -0.1022290
     -0.1031475     -0.1046527     -0.1056268     -0.1059289     -0.1060412
     -0.1061508     -0.1058257     -0.1046664     -0.1020491     -0.1027261
     -0.1046607     -0.1077083     -0.1104727     -0.1093462     -0.1080303
     -0.1072470     -0.1073666     -0.1060694     -0.1065640     -0.1074145
     -0.1068097     -0.1063789     -0.1046656     -0.1040776     -0.1025727
     -0.1044064     -0.1054906     -0.1053856     -0.1033167     -0.1013402
     -0.1041435     -0.1140021     -0.1464245     -0.2443132     -0.4608177
     -0.7246498     -0.7758644     -0.4659356     0.03977662      0.4393367
      0.5151818      0.3781832      0.3778202      0.5954117      0.6533617
      0.2345680     -0.4190894     -0.7727797     -0.6027542     -0.1834499
      0.1027655      0.1658013      0.1439551     0.02951217     -0.3376354
     -0.8469436      -1.052483     -0.7219905     -0.1873979     0.02824143
     -0.1670878     -0.3374647    -0.07621397      0.4819015      0.8253006
      0.6500754      0.1117685     -0.4196268     -0.6189103     -0.3750384
      0.1131407      0.4306854      0.2800812     -0.2103972     -0.5757408
     -0.4951231     -0.1194928      0.1204982    -0.04762059     -0.4880048
     -0.7840151     -0.6432892     -0.1847536      0.2352680      0.3644439
      0.1939906    -0.06975850     -0.2114452     -0.1785334    -0.08825216
    -0.06891691    -0.09827439    -0.04170477      0.1507914      0.3272404
      0.2853683     0.03710455     -0.1350448  -0.0003210008      0.2628226
      0.2277105     -0.2445762     -0.7688595     -0.8776529     -0.5492175
     -0.1844901     -0.1385959     -0.3442213     -0.4682579     -0.3792650
     -0.2361728     -0.1805639     -0.1535429    -0.06671631     0.02348237
     0.02491979     0.01581847      0.1478390      0.3816826      0.4922833
      0.3418671     0.02616352     -0.2441389     -0.3291956     -0.2107954
     0.02557974      0.1995324      0.1866058     0.04292652    -0.02019822
     0.08647083      0.1999998      0.1460914    -0.02049945     -0.1778983
     -0.3323211     -0.5209316     -0.6896303     -0.7377880     -0.5928534
     -0.2693855     0.09053645      0.2582304      0.1123659     -0.2455853
     -0.5930892     -0.7555835     -0.6685333     -0.3856527    0.002771199
      0.4246638      0.7848214      0.9481294      0.8719950      0.6320667
      0.3102152    -0.02430357     -0.3227928     -0.5801295     -0.7672062
     -0.8077219     -0.6654938     -0.4595559     -0.3690937     -0.4321246
     -0.5092390     -0.4800341     -0.3178344    -0.01999277      0.3695002
      0.6923612      0.7925715      0.6815793      0.4956069      0.3507912
      0.2613932      0.1432393     -0.1340573     -0.6381101      -1.222270
      -1.605222      -1.596077      -1.237890     -0.7430209     -0.3624300
     -0.1983895     -0.1241758     0.08770931      0.4866669      0.8726368
       1.027938      0.9258868      0.6773495      0.3764858     0.05215189
     -0.2627789     -0.5147486     -0.6819755     -0.7816611     -0.8029615
     -0.7148235     -0.5194328     -0.2707258     0.01469806      0.3661214
      0.7952350       1.211441       1.410435       1.253314      0.7773517
      0.1626508     -0.3733479     -0.7155451     -0.8984421     -0.9854601
     -0.9239348     -0.5975795   -0.009231687      0.5961311      0.9164722
      0.7826539      0.2561448     -0.4269454     -0.9776297      -1.204089
      -1.122490     -0.9198151     -0.7765299     -0.7288611     -0.6735325
     -0.5201793     -0.2940528    -0.08401480     0.08605689      0.2485730
      0.3955951      0.4940282      0.5896702      0.7930878       1.117484
       1.397328       1.422131       1.129426      0.6410821      0.1012133
     -0.3734590     -0.7143503     -0.9411573      -1.124164      -1.302511
      -1.419586      -1.388793      -1.207248     -0.9700488     -0.7630810
     -0.5691297     -0.2824247      0.1482894      0.6231773      0.9648834
       1.041205      0.8571973      0.5299543      0.1900319    -0.09679234
     -0.3221813     -0.4738493     -0.5264473     -0.4478393     -0.2570451
    -0.05662885     0.04223220   -0.007051423     -0.1306656     -0.1803443
    -0.04063579      0.2443584      0.4823007      0.4655333      0.1476026
     -0.2920518     -0.5881131     -0.6157051     -0.4609951     -0.3157415
     -0.2789594     -0.2949641     -0.2493912     -0.1027722     0.07601611
      0.1847269      0.1890536      0.1384575     0.09971403     0.09048855
     0.09221812     0.07822873     0.04306114     0.01388530     0.03534371
     0.08623484     0.09999737     0.04140069    -0.04635736     -0.1103317
     -0.1396679     -0.1878832     -0.3012307     -0.4533967     -0.5428512
     -0.4705694     -0.2682013    -0.08848378    -0.08403596     -0.2658626
     -0.4758261     -0.5292926     -0.3495361    -0.01844999      0.2990544
      0.4632319      0.4446158      0.3257425      0.1999129     0.08997473
    -0.02381109     -0.1541520     -0.2848250     -0.3846489     -0.4056880
     -0.3231406     -0.1656533    -0.01142365     0.08518955      0.1229302
      0.1204752     0.09030851     0.03685725    -0.03075827    -0.08752774
     -0.1078320    -0.09442719    -0.07877187    -0.09997239     -0.1576104
     -0.2007320     -0.2092790     -0.2114809     -0.2658530     -0.3635256
     -0.4299313     -0.3881630     -0.2389214    -0.05546002     0.08129896
      0.1271338      0.1000972     0.03632325    -0.03503808    -0.08994929
     -0.1282378     -0.1535255     -0.1673326     -0.1686291     -0.1504143
     -0.1219476     -0.1063665     -0.1162780     -0.1405966     -0.1648902
     -0.1859144     -0.2149035     -0.2347183     -0.2167539     -0.1449177
    -0.03803903     0.05940291      0.1051474     0.08476395     0.01525848
    -0.07885751     -0.1696891     -0.2388106     -0.2734579     -0.2909150
     -0.3016140     -0.2988892     -0.2550273     -0.1602029    -0.03745373
     0.06424809      0.1244428      0.1594614      0.2030246      0.2475688
      0.2488630      0.1686499     0.02918153     -0.1006607     -0.1641321
     -0.1672846     -0.1678612     -0.2030992     -0.2587404     -0.2828202
     -0.2542239     -0.2079651     -0.1991631     -0.2383831     -0.2836887
     -0.2813834     -0.2108318     -0.1066409    -0.03744687    -0.03708060
    -0.07747162    -0.08450205   -0.006981250      0.1390840      0.2723831
      0.3259821      0.2887868      0.2196142      0.1726884      0.1613718
      0.1363682     0.05023932    -0.09377083     -0.2424877     -0.3328688
     -0.3514377     -0.3425219     -0.3538508     -0.3955682     -0.4397746
     -0.4552763     -0.4170308     -0.3304636     -0.2344966     -0.1681244
     -0.1366961     -0.1130856    -0.07145579    -0.02823103   -0.009750932
    -0.02792170    -0.07656335     -0.1278833     -0.1556776     -0.1595195
     -0.1526479     -0.1511190     -0.1561463     -0.1529336     -0.1356905
     -0.1155935     -0.1079010     -0.1110512     -0.1078864    -0.08477430
    -0.03800335     0.01726384     0.05912972     0.06835078     0.04717219
     0.02003104    0.004099401   0.0006006025   -0.002915213    -0.01225392
    -0.01585777   -0.006171810    0.001893036   -0.009845097    -0.05283847
     -0.1091230     -0.1501251     -0.1545771     -0.1349062     -0.1055457
    -0.08030331    -0.05823096    -0.03822087    -0.03595208    -0.07136227
     -0.1452607     -0.2248332     -0.2844506     -0.3037369     -0.2879826
     -0.2474669     -0.2023593     -0.1638221     -0.1375383     -0.1205046
    -0.09848615    -0.05584286   -0.001708753     0.04037245     0.04251454
     0.01556284    -0.01096032    -0.02314441    -0.03833953    -0.07357144
     -0.1273392     -0.1778355     -0.2026923     -0.2026665     -0.1865797
     -0.1742523     -0.1757221     -0.1963044     -0.2169075     -0.2169623
     -0.1881773     -0.1408347    -0.09341390    -0.05103556    -0.01938906
    0.002019038    0.005297663   -0.007311798    -0.02553155    -0.03716964
    -0.03659242    -0.03275319    -0.03823392    -0.05759861    -0.08917925
     -0.1199166     -0.1461343     -0.1685762     -0.1820936     -0.1890678
     -0.1750699     -0.1410702    -0.09148747    -0.04702350    -0.02678422
    -0.03473132    -0.06265675    -0.09214935     -0.1123077     -0.1182716
     -0.1135151     -0.1040328    -0.09009281    -0.07066818    -0.05407547
    -0.04706963    -0.05225154    -0.05959459    -0.06195038    -0.06039963
    -0.06641582    -0.08696499     -0.1218074     -0.1573998     -0.1818557
     -0.1917630     -0.1998411     -0.2167585     -0.2446120     -0.2633042
     -0.2525505     -0.2087874     -0.1532841     -0.1113156    -0.08618506
    -0.06722628    -0.04250848    -0.02156433    -0.01552026    -0.03008955
    -0.05652455    -0.08455692     -0.1033643     -0.1066634    -0.09797875
    -0.08269227    -0.07669096    -0.08066119    -0.09629861     -0.1152432
     -0.1267513     -0.1317280     -0.1364003     -0.1413307     -0.1486607
     -0.1543532     -0.1599097     -0.1699839     -0.1768642     -0.1771878
     -0.1699545     -0.1543767     -0.1359087     -0.1141661    -0.09238426
    -0.06740217    -0.04295418    -0.02969320    -0.03014972    -0.04034885
    -0.05174428    -0.05108459    -0.03835725    -0.02461318    -0.01960730
    -0.02795303    -0.04492230    -0.06384446    -0.08509056     -0.1140644
     -0.1480097     -0.1743584     -0.1846102     -0.1730283     -0.1467319
     -0.1176983    -0.09677371    -0.08673667    -0.08560929    -0.08752497
    -0.09240660    -0.09697651     -0.1039657     -0.1060313    -0.09926839
    -0.08453977    -0.07513066    -0.08702867     -0.1169398     -0.1502943
     -0.1665538     -0.1647409     -0.1541774     -0.1522755     -0.1582347
     -0.1606103     -0.1433984     -0.1060751    -0.06544296    -0.03730322
    -0.02928854    -0.02544340    -0.01369184     0.01129213     0.02990430
     0.02585631   -0.005325703    -0.04798163    -0.07913925    -0.08734594
    -0.08354136    -0.08536182     -0.1040656     -0.1297312     -0.1459287
     -0.1421102     -0.1274626     -0.1117564    -0.09704165    -0.08426805
    -0.07451438    -0.07034364    -0.07308566    -0.08558384    -0.09893615
     -0.1141322     -0.1251983     -0.1306785     -0.1323958     -0.1311343
     -0.1265071     -0.1132342    -0.09835763    -0.08986813    -0.09263717
     -0.1011315     -0.1055031    -0.09836219    -0.08930361    -0.08597489
    -0.09529723     -0.1034219     -0.1029397    -0.09463162    -0.08686785
    -0.08577102    -0.09010910    -0.09389266    -0.09435686    -0.09116419
    -0.08658612    -0.08322085    -0.07879397    -0.07352903    -0.06601307
    -0.06206234    -0.06535490    -0.07576617    -0.08989607    -0.09567862
    -0.09088259    -0.08122913    -0.07006405    -0.06814753    -0.07517655
    -0.08726732     -0.1001408     -0.1126815     -0.1285041     -0.1434241
     -0.1547372     -0.1586366     -0.1569046     -0.1509110     -0.1435135
     -0.1374136     -0.1363630     -0.1419654     -0.1449996     -0.1432521
     -0.1346802     -0.1249243     -0.1188128     -0.1194544     -0.1211600
     -0.1224158     -0.1197602     -0.1122535     -0.1009933    -0.08274391
    -0.06316786    -0.04678285    -0.04067294    -0.04066159    -0.04700930
    -0.05200183    -0.05427442    -0.05694801    -0.06554440    -0.07141317
    -0.07110516    -0.06074043    -0.05058615    -0.05035064    -0.06338529
    -0.08007903    -0.08668026    -0.08130005    -0.07238436    -0.06763509
    -0.06854615    -0.07681726    -0.08771090    -0.09681319     -0.1081327
     -0.1213580     -0.1301576     -0.1316630     -0.1231759     -0.1115616
     -0.1045050     -0.1008266     -0.1005512    -0.09757291    -0.09520647
    -0.09528477     -0.1004158     -0.1092502     -0.1139492     -0.1141186
     -0.1121189     -0.1098721     -0.1125666     -0.1166542     -0.1174270
     -0.1106227    -0.09943528    -0.08599409    -0.07651566    -0.07592251
    -0.08067574    -0.07975912    -0.07370698    -0.06329300    -0.05972534
    -0.06534189    -0.07563734    -0.08879031    -0.09894698     -0.1076610
     -0.1164015     -0.1230422     -0.1209296     -0.1155731     -0.1088700
     -0.1064913     -0.1057244     -0.1046922     -0.1013684     -0.1004372
     -0.1025997     -0.1128744     -0.1266678     -0.1368692     -0.1455501
     -0.1496367     -0.1568073     -0.1656214     -0.1755245     -0.1823594
     -0.1826624     -0.1777894     -0.1744684     -0.1751385     -0.1763474
     -0.1740292     -0.1647623     -0.1471112     -0.1263908     -0.1103123
    -0.09977923    -0.09745214    -0.09901887     -0.1009949    -0.09973507
    -0.09546149    -0.09120462    -0.08842985    -0.08245759    -0.07628141
    -0.06646733    -0.05823401    -0.05770269    -0.06617700    -0.07788796
    -0.08480081    -0.08786263    -0.08936094    -0.09025335    -0.08957693
    -0.08707687    -0.08204611    -0.07560581    -0.06956011    -0.06794038
    -0.07068888    -0.08405313     -0.1027938     -0.1212502     -0.1327833
     -0.1335862     -0.1298840     -0.1220644     -0.1130419    -0.09941911
    -0.08159684    -0.06661173    -0.05798233    -0.05904848    -0.06660533
    -0.07804501    -0.08615478    -0.09161994    -0.09087606    -0.08670434
    -0.08130033    -0.07675445    -0.07203890    -0.06682961    -0.06446511
    -0.06048937    -0.05809357    -0.05953293    -0.06594851    -0.07480965
    -0.08436662    -0.08794724    -0.08360460    -0.07491242    -0.06824186
    -0.06667179    -0.07205433    -0.07752287    -0.08269697    -0.08799899
    -0.09427654     -0.1023627     -0.1102526     -0.1148271     -0.1144243
     -0.1108114     -0.1058430    -0.09977673    -0.09762521    -0.09897074
     -0.1010511    -0.09926797    -0.09265747    -0.08570644    -0.08297031
    -0.08718161    -0.09810317     -0.1082059     -0.1161253     -0.1169867
     -0.1105418     -0.1053621     -0.1032601     -0.1065685     -0.1137065
     -0.1181388     -0.1201163     -0.1195438     -0.1139746     -0.1074961
    -0.09442146    -0.08037429    -0.06528480    -0.05328290    -0.04806869
    -0.05085637    -0.05926173    -0.06888205    -0.07796481    -0.07967605
