     0.01000000      -85.63200       87.67999      -12345.00      -12345.00
       9.464999       19.44500       0.000000       10.47000       2.000000
      -12345.00       20.00000      -12345.00      -12345.00      -12345.00
      -12345.00      -12345.00      -12345.00      -12345.00      -12345.00
       17.78000      -12345.00      -12345.00      -12345.00      -12345.00
      -12345.00      -12345.00      -12345.00      -12345.00      -12345.00
      -12345.00       87.99997      -120.0000      -12345.00      -12345.00
       47.99997      -125.0000      -12345.00      -12345.00      -12345.00
       123.4560      -12345.00      -12345.00      -12345.00      -12345.00
      -12345.00      -12345.00      -12345.00      -12345.00      -12345.00
       4461.052      0.2719055       185.2047       40.18595      -12345.00
      -12345.00    0.002050075       0.000000       0.000000      -12345.00
      -12345.00      -12345.00      -12345.00      -12345.00      -12345.00
      -12345.00      -12345.00      -12345.00      -12345.00      -12345.00
      1981        88        10        38        14
         0         6         0         0       999
    -12345    -12345    -12345    -12345    -12345
         1         5         9    -12345    -12345
    -12345    -12345        42    -12345    -12345
    -12345    -12345    -12345    -12345    -12345
    -12345    -12345    -12345    -12345    -12345
         1         1         1         1         0
CDV              K8108838
-12345  HOLE    IPD0    
XYZ     -12345  KT1     
-12345  -12345  -12345  
-12345  -12345  -12345  
-12345  -12345  ABKD    
USER0   -12345  Q       
-12345  -12345  -12345  
       0.000000     -0.1280010       0.000000      0.1280010      0.1280010
      0.1279980      0.1280010       0.000000       0.000000       0.000000
       0.000000     -0.1280010       0.000000      0.1280010       0.000000
      0.1280010       0.000000       0.000000       0.000000      0.1279980
       0.000000     -0.1279980     -0.1280010     -0.1280010       0.000000
       0.000000       0.000000       0.000000       0.000000      0.1280010
       0.000000      0.1280010      0.1279980       0.000000     -0.1279980
       0.000000       0.000000     -0.1280010     -0.1280010     -0.1279980
     -0.2560019       0.000000       0.000000      0.1280010       0.000000
     -0.1280010     -0.1279980       0.000000       0.000000       0.000000
       0.000000     -0.1280002       0.000000       0.000000       0.000000
     -0.1279995       0.000000     -0.1280002      0.1280002     -0.2560005
       0.000000     -0.1279995      0.2559997       0.000000      0.1280002
     -0.1280002       0.000000       0.000000       0.000000     -0.1280002
     -0.1279995       0.000000      0.1279995      0.1280002       0.000000
     -0.1280002     -0.1279995      0.1279995       0.000000       0.000000
     -0.1279995     -0.2560005       0.000000       0.000000       0.000000
       0.000000      0.2560005      0.1279995       0.000000       0.000000
     -0.1279995       0.000000       0.000000      0.2559997       0.000000
       0.000000       0.000000      0.1280002      0.1279995     -0.3839999
      -1.280000      -4.096000      -12.28801      -27.64801      -35.32798
      -8.448017       46.72002       87.67999       78.20799       13.44000
      -58.88002      -74.75198      -29.82400       16.89600       22.01600
       2.432000      -8.191999      -5.248002      -6.271998      -13.18400
      -6.656009       18.81601       28.28800      -9.856000      -62.84800
      -62.84800       2.815998       72.06400       79.74400       27.52000
      -25.21600      -32.25600      -4.352000       19.07200       18.56000
     -0.5119979      -26.88000      -40.32000      -22.40002       18.81602
       46.97600       32.64000      -12.16001      -44.67199      -39.29600
      -9.856009       13.95201       16.25600       5.375999       1.791999
       11.64800       18.17600       9.216001      -8.064000      -19.58400
      -12.92800       8.064000       24.70400       18.81600      -7.680000
      -29.05600      -20.09601       15.10401       41.85600       30.20798
      -10.62399      -37.50399      -23.68000       5.120000       5.759998
      -24.06400      -40.96000      -16.51200       27.00798       45.82402
       23.42400      -12.41600      -26.62400      -19.32800      -8.832002
       2.687991       24.57601       47.48800       44.41598       6.656021
      -35.20000      -44.80000      -20.09600       12.92800       31.74400
       29.05600       7.679999      -22.14400      -41.08800      -33.53600
      -6.272018       23.55202       42.62400       48.25598       31.61600
      -14.84798      -68.99200      -85.24799      -47.74401       13.18400
       57.08799       61.82401       29.05600      -16.25600      -41.98400
      -34.17601      -7.424009       16.00002       23.55200       13.82400
      -4.992000      -16.25600      -8.831999       17.92000       51.20000
       65.66399       40.44801      -13.05599      -61.05601      -77.69600
      -55.55202      -11.39200       21.88802       25.34400       7.040003
      -11.26400      -18.43201      -13.82401       1.536000       22.91202
       33.66400       25.47200       12.92800       12.54399       19.71199
       20.35201       9.343994      -10.87999      -32.76799      -45.05600
      -40.96000      -27.39200      -19.20002      -17.79199      -15.10400
      -4.991996       11.51999       29.95201       40.31999       38.65601
       32.51200       31.87198       30.59200       14.84802      -12.41602
      -31.35999      -30.20799      -17.53600      -10.36800      -14.72000
      -24.44800      -30.84802      -27.13599      -7.807994       22.52799
       47.87201       51.71200       36.86398       20.22400       16.76800
       23.29602       18.30400      -10.11201      -52.99199      -85.63200
      -82.56002      -40.44798       15.74399       54.14399       61.69601
       45.69600       20.86399      -5.247998      -23.29599      -29.44000
      -26.75200      -23.04000      -21.37600      -18.68801      -12.79999
      -4.864001       5.120003       17.91998       32.00002       38.01600
       26.62400       2.304000      -13.56800      -5.248001       18.94400
       38.27200       42.62398       35.71202       20.99200      -2.815998
      -31.87200      -52.99200      -54.52800      -42.62401      -26.87999
      -13.95202      -10.11200      -16.51198      -26.11201      -24.83200
      -5.760002       21.88801       40.83199       42.62399       34.17602
       30.08000       34.17599       35.20000       21.63201      -7.168001
      -36.73600      -48.76800      -36.22400      -9.728000       11.13600
       13.69600      -1.152000      -17.40800      -18.81600      -2.944002
       20.09600       33.15200       27.39200       8.191991      -8.831993
      -14.08000      -9.728003      -6.399998      -10.24000      -15.61601
      -13.56799      -4.480010       3.968012       4.607990       1.152009
       2.304000       11.13600       20.73600       21.24800       9.727998
      -5.759999      -13.95200      -10.75200      -2.048000       4.608000
       4.863999      0.5119979      -2.175997       2.175997       6.912004
       2.944000      -10.11200      -21.12000      -20.60800      -7.296008
       7.935998       13.05601       4.480000      -9.088000      -13.82400
      -6.783998       4.479999       9.472000       5.632001      0.5119979
      0.8960009       8.576000       18.30400       23.04000       17.79199
       4.352009      -9.344000      -17.92000      -21.50400      -20.22400
      -14.08000      -4.736000       3.711993       9.984008       13.31200
       12.67200       6.912000      0.1279995      -2.432000     -0.6399989
       1.536000      0.2559990      -4.479999      -8.192000      -6.527999
     -0.3839999       4.863998       3.328000      -3.967999      -9.088000
      -8.959998      -4.992002      -2.815998      -1.536003       1.920003
       8.831999       14.84800       15.10400       9.216001      0.1279995
      -6.400001      -8.575999      -7.424000      -3.968000      -1.152000
      0.2560005      0.6399989      0.7679999       1.792000       2.176000
       0.000000      -3.839999      -5.888000      -4.352000     -0.3839999
       2.304000       3.968000       5.248000       6.656000       7.168000
       5.504000       1.408000      -3.712000      -7.680000      -9.855999
      -9.344001      -6.399998      -1.408002       1.664001       2.047989
       1.280010       3.200002       8.191999       13.18400       13.18400
       8.320000       2.176000     -0.6399989      -1.280001      -3.328000
      -8.704002      -13.44000      -12.28800      -4.480000       3.968000
       5.248000      -1.280001      -9.471999      -10.62400      -3.200001
       6.528002       10.36800       6.272000      -1.536000      -6.400000
      -3.968002       3.840001       9.984000       10.11200       4.991998
      0.6400019       1.535999       7.040001       10.75200       8.704000
      0.7679999      -6.911999      -10.36800      -8.320003      -5.631998
      -5.760000      -8.576000      -11.00800      -9.600001      -5.120000
      -1.407999     -0.2560109     -0.7679880     -0.8960098       0.000000
       3.199997       7.552010       9.728001       7.936001       3.967998
       1.408002       1.919999       2.304001      0.8959999      -2.048000
      -5.248002      -5.887999      -2.944000       1.152001       3.712000
       2.816000     -0.3840007      -2.560000      -2.176000       0.000000
       2.176000       3.584001       4.223999       3.968001       3.456000
       2.559999       1.280000     -0.7679992      -2.560000      -2.304000
     -0.5119999       1.280000       1.280000     -0.2560000      -1.152000
     -0.7680000     -0.8959999      -2.304000      -4.992000      -6.016000
      -3.584001       1.920000       6.016000       6.656000       3.200000
      -1.408000      -4.224000      -4.992000      -4.864000      -4.607999
      -3.200001      -2.048001     -0.6399989      0.3839999       2.048001
       3.583999       4.736000       4.480000       2.815999       1.536000
       2.560000       4.480001       4.991999       1.535999      -3.071999
      -5.503999      -4.864000      -3.328000      -2.176000      -1.791999
      -1.536001      -1.023999      -1.152000      -1.152001      -1.279999
     -0.8959994     -0.7679999      0.3839999       2.431999       4.480000
       5.120000       3.839999       2.432001       1.280000       1.024000
      0.2559999     -0.7679998      -1.408000      -1.024000      0.2559990
      0.8960010     -0.1280001      -2.432001      -4.991999      -5.504000
      -3.968000      -1.152000       2.176000       3.584001       4.096000
       3.072000       1.919999      0.5120009     -0.7680010      -1.279999
      -1.152000     -0.3839999       0.000000     -0.1280010     -0.6399989
     -0.8960001      0.1280002       2.304000       3.583999       2.816001
       0.000000      -2.560000      -3.328002      -2.047998     -0.3839999
      0.2559997      -1.024000      -2.944000      -4.096000      -3.455999
      -2.048001     -0.7679999     -0.5119994      0.1279995       1.920000
       4.480000       5.760001       4.607999       2.432000      0.7679992
      0.6400008      0.5119991       0.000000      -1.023999      -1.664001
      -1.920001      -1.536000     -0.5119979      0.5119979       1.408002
      0.7679999     -0.2560019      -1.791999      -2.559999      -1.792000
     -0.5119994      0.2559990      0.5120009     -0.1280010     -0.7679999
      -1.408000      -2.047999      -1.280001      0.3839999       2.176000
       3.456001       3.200000       2.175999      0.7680006      0.5119979
       1.152002       1.408000       1.023999       0.000000      -1.023999
     -0.6400008      0.6400008       1.536000       1.280000     -0.3840000
      -2.432000      -3.712002      -3.967998      -3.584001      -2.431999
     -0.3839999       1.536000       2.944000       2.943999       1.664000
     -0.1280010      -1.151999     -0.8960001      0.5120002       1.535999
       1.664001      0.1279980      -1.279998      -1.536000     -0.2559997
      0.8959986      0.1280010      -1.792000      -3.455999      -2.816000
     -0.6399989       1.791999       2.176000       1.024000     -0.3839999
       0.000000       2.176000       4.351998       4.992002       3.072000
      0.6400002      -1.152000     -0.8960001     -0.2560000       0.000000
     -0.8959999      -2.176000      -2.688002      -2.047999      -1.280001
      -1.023998      -1.536000      -1.536000     -0.5119994       1.279999
       2.048001       1.663998       1.024002      0.5119979      0.2560019
       0.000000     -0.3839999      -1.280001      -1.407999      -1.536000
     -0.8960009       0.000000      0.5120009      0.5119994      0.2560005
      0.7679999       1.152000       1.023999      0.1280010     -0.7679999
     -0.8960001      0.1280002      0.7679999      0.7679999     -0.3839999
     -0.6400019     -0.1279980      0.6399989      0.7679999      0.1280010
     -0.6400019     -0.7679999     -0.2559982      0.6399982       1.280001
       1.152001      0.6399996     -0.1280010     -0.3839977     -0.5120009
     -0.5120016     -0.5119979     -0.6400019       0.000000      0.7679999
       1.024003       1.024000     -0.1280010      -1.408000      -2.175999
      -2.048000      -1.280000     -0.7679999     -0.2560005     -0.1279995
     -0.1279995     -0.3839999     -0.3840014       0.000000      0.6400004
      0.8960009      0.3839999      0.1279995     -0.1279995      0.1279995
      0.3839999      0.5120002      0.2559997      0.2560005      0.1279995
      0.2560005      0.6399996       1.151999       2.175999       2.560002
       2.048000      0.2560001      -1.280000      -2.304000      -1.536001
      0.2559990       1.664002       1.280000      0.2560001      -1.024001
      -1.152001     -0.7679976     -0.2560027     -0.1279980       0.000000
      0.5119987      0.7680006      0.2560001     -0.6400008      -1.152001
      -1.407999      -1.023999     -0.2559997     -0.2560005     -0.7679999
     -0.8960001     -0.5119994      0.6399996       1.408000       1.151998
      0.5120009     -0.3839999     -0.3839992     -0.1279995      0.2559997
      0.1279980     -0.5119979     -0.7679999     -0.7679999     -0.3839999
      0.3839999      0.6399996      0.6400004      0.3839999      0.2559997
      0.1279980      0.5120009      0.8960009      0.7679999      0.3840007
      0.5119979      0.3840007      0.3840011     -0.3840011      -1.152001
      -1.279998      -1.152000     -0.5120002     -0.2559997     -0.5120002
     -0.7679999     -0.1280002      0.3839999      0.8960001      0.6400004
      0.2559997     -0.1280002     -0.1279995     -0.2560005     -0.2559997
     -0.8960001      -1.408000      -1.280001      -1.152000     -0.3839999
     -0.2560005     -0.2559990     -0.6400004     -0.8959994     -0.6400004
       0.000000      0.3839999      0.5119994      0.6400004      0.7679999
       1.024000       1.536000       1.792000       1.408000      0.8960001
       0.000000     -0.5120002     -0.5119994      0.1279995      0.8960001
       1.152000      0.7679999      0.5119987       0.000000      0.2560019
      0.5119987      0.2560001     -0.5119991      -1.152001      -1.023999
     -0.6400019     -0.1279980      0.3839999      0.7679999      0.7679999
      0.5119987      0.1280010     -0.1280010     -0.3840007     -0.3839999
      -1.152000      -1.791998      -2.048000      -1.408000      0.1280010
       1.279999       2.048000       1.791998       1.280001      0.7680006
      0.1280010     -0.1280010     -0.2559990     -0.1280010     -0.2559997
     -0.2560019     -0.6399989     -0.5120009     -0.1279980      0.5119979
       1.024002       1.279999       1.024000       0.000000     -0.5119991
     -0.7679999     -0.6399996     -0.3840007     -0.1280010     -0.2559990
     -0.1280010      0.2559990      0.6400026      0.6399996      0.2559990
     -0.6399996      -1.024000      -1.152000     -0.8960001     -0.3839999
       0.000000      0.1280002       0.000000     -0.2559997     -0.5120002
     -0.3839999      0.3839999      0.8960001       1.024000      0.6399989
      0.1280010     -0.2560019     -0.5119979     -0.5120009     -0.3839992
     -0.3839999     -0.1279995     -0.2560005     -0.1279995      0.2559997
      0.1280002       0.000000     -0.3839999     -0.7680006     -0.5119994
     -0.1280002      0.3839999       1.152000       1.280000       1.663998
       1.280002      0.8959990      0.3839999     -0.1279987     -0.5120002
     -0.6400000     -0.5120016     -0.5119987       0.000000
