     0.01000000      -1.375421       1.433509      -12345.00      -12345.00
       9.459999       19.45000       0.000000       10.47000       2.000000
      -12345.00       20.00000      -12345.00      -12345.00      -12345.00
      -12345.00      -12345.00      -12345.00      -12345.00      -12345.00
       17.78000      -12345.00      -12345.00      -12345.00      -12345.00
      -12345.00      -12345.00      -12345.00      -12345.00      -12345.00
      -12345.00       87.99997      -120.0000      -12345.00      -12345.00
       47.99997      -125.0000      -12345.00      -12345.00      -12345.00
       123.4560      -12345.00      -12345.00      -12345.00      -12345.00
      -12345.00      -12345.00      -12345.00      -12345.00      -12345.00
       4461.052      0.2719055       185.2047       40.18595      -12345.00
      -12345.00    -0.09830008       0.000000       0.000000      -12345.00
      -12345.00      -12345.00      -12345.00      -12345.00      -12345.00
      -12345.00      -12345.00      -12345.00      -12345.00      -12345.00
      1981        88        10        38        14
         0         6         0         0      1000
    -12345    -12345    -12345    -12345    -12345
         1        50         9    -12345    -12345
    -12345    -12345        42    -12345    -12345
    -12345    -12345    -12345    -12345    -12345
    -12345    -12345    -12345    -12345    -12345
         1         1         1         1         0
CDV              K8108838
-12345  HOLE    IPD0    
XYZ     -12345  KT1     
-12345  -12345  -12345  
-12345  -12345  -12345  
-12345  -12345  ABKD    
USER0   -12345  Q       
-12345  -12345  -12345  
  -0.0008671985   -0.006112357    -0.02047392    -0.04442459    -0.07194817
    -0.09475031     -0.1075003     -0.1098311     -0.1051688    -0.09817347
    -0.09251913    -0.08985434    -0.08996180    -0.09163252    -0.09357345
    -0.09490715    -0.09528892    -0.09482193    -0.09387029    -0.09285849
    -0.09210018    -0.09168161    -0.09149746    -0.09144246    -0.09155543
    -0.09195891    -0.09268406    -0.09357901    -0.09438890    -0.09491382
    -0.09509076    -0.09495662    -0.09458016    -0.09402269    -0.09332038
    -0.09252892    -0.09180316    -0.09135518    -0.09130449    -0.09163056
    -0.09226240    -0.09315802    -0.09430748    -0.09565791    -0.09701592
    -0.09806909    -0.09857343    -0.09856298    -0.09836058    -0.09833527
    -0.09863867    -0.09916119    -0.09969097     -0.1001002     -0.1004000
     -0.1006519     -0.1008888     -0.1011365     -0.1014452     -0.1018532
     -0.1023402     -0.1028636     -0.1034315     -0.1040609     -0.1046495
     -0.1049687     -0.1048421     -0.1043269     -0.1036998     -0.1032572
     -0.1031421     -0.1033556     -0.1038553     -0.1045567     -0.1052552
     -0.1056544     -0.1055659     -0.1051036     -0.1046312     -0.1044618
     -0.1046232     -0.1049343     -0.1052611     -0.1056657     -0.1062975
     -0.1071638     -0.1080711     -0.1087523     -0.1089685     -0.1085702
     -0.1076096     -0.1063982     -0.1053799     -0.1048946     -0.1049773
     -0.1053236     -0.1054980     -0.1052547     -0.1046611     -0.1039269
     -0.1032232     -0.1028385     -0.1038200     -0.1094513     -0.1284982
     -0.1791157     -0.2848821     -0.4511659     -0.6291835     -0.7066015
     -0.5616047     -0.1625944      0.3657832      0.7878207      0.9033626
      0.6837490      0.2815378    -0.08775912     -0.2832190     -0.2932017
     -0.1985674     -0.1018899    -0.07067709     -0.1090290     -0.1661698
     -0.1887597     -0.1854300     -0.2334301     -0.3975127     -0.6333342
     -0.7873459     -0.7143891     -0.4064863   -0.008057222      0.2947139
      0.4047741      0.3561295      0.2519748      0.1693293      0.1100357
     0.02819876    -0.09903701     -0.2263081     -0.2685002     -0.1817303
    -0.01921967     0.09739036     0.07009035     -0.1017146     -0.3267966
     -0.4932735     -0.5389705     -0.4693524     -0.3285512     -0.1655876
    -0.02278215     0.06305446     0.06841347    0.002036534    -0.08699873
     -0.1332749     -0.1024613    -0.02238480     0.03798581     0.03169129
    -0.01785411    -0.03525152     0.03278611      0.1595952      0.2578088
      0.2563136      0.1534838   -0.003686965     -0.1767851     -0.3556007
     -0.5243787     -0.6321708     -0.6193237     -0.4785143     -0.2812786
     -0.1366153     -0.1189183     -0.2241635     -0.3755610     -0.4628377
     -0.3966177     -0.1627125      0.1531879      0.4025187      0.4637892
      0.3240320     0.08806015    -0.09194961     -0.1147136    0.009705082
      0.1725602      0.2411863      0.1474636    -0.06664880     -0.2734960
     -0.3345581     -0.1807989      0.1394453      0.4671339      0.6028651
      0.4203187    -0.04166391     -0.5804288     -0.9382492     -0.9528421
     -0.6512867     -0.2265730     0.08519736      0.1435451    -0.03064120
     -0.2943979     -0.4871377     -0.5261458     -0.4367264     -0.3085855
     -0.2159465     -0.1579946    -0.06141183      0.1535385      0.4886166
      0.8316314       1.006223      0.8806541      0.4611717    -0.09814720
     -0.5801396     -0.8271388     -0.8186653     -0.6589274     -0.4951605
     -0.4271293     -0.4601088     -0.5200144     -0.5137703     -0.3920111
     -0.1714015     0.09144684      0.3422542      0.5498716      0.6970452
      0.7613835      0.7112430      0.5240526      0.2115477     -0.1732308
     -0.5570835     -0.8791885      -1.108815      -1.238470      -1.265304
      -1.181223     -0.9808213     -0.6769467     -0.3054056     0.08603413
      0.4497462      0.7389870      0.9064453      0.9175727      0.7747398
      0.5266501      0.2462679   -0.008961834     -0.2233447     -0.4160222
     -0.6071047     -0.7820811     -0.8825713     -0.8356168     -0.6044153
     -0.2217597      0.2228459      0.6329275      0.9488963       1.149594
       1.217738       1.112699      0.7888109      0.2532761     -0.3866059
     -0.9391431      -1.211765      -1.110833     -0.6918026     -0.1309026
      0.3589242      0.6184469      0.5954741      0.3428276    -0.02759606
     -0.4030369     -0.7091721     -0.9180357      -1.032426      -1.063050
      -1.012431     -0.8744507     -0.6508994     -0.3732087     -0.1060174
     0.08235072      0.1666599      0.1894177      0.2380980      0.3898013
      0.6625415       1.000825       1.296798       1.433509       1.334000
      0.9969111      0.4998941    -0.03352243     -0.4873449     -0.8000066
     -0.9817424      -1.093125      -1.195609      -1.304239      -1.375421
      -1.339302      -1.151538     -0.8239465     -0.4136980     0.01199017
      0.4007432      0.7122317      0.9029078      0.9270186      0.7641456
      0.4517707     0.08836176     -0.2072894     -0.3580793     -0.3682668
     -0.3103603     -0.2676664     -0.2746937     -0.2987867     -0.2742828
     -0.1604377     0.02240488      0.2043572      0.3121714      0.3117665
      0.2174658     0.07004078    -0.09058784     -0.2368068     -0.3502117
     -0.4184139     -0.4384109     -0.4188098     -0.3723866     -0.3038913
     -0.2074066    -0.07947217     0.06369481      0.1841523      0.2419441
      0.2220818      0.1462580     0.05943567    0.002139950    -0.01019113
     0.01297200     0.05289352     0.09433074      0.1241760      0.1240678
     0.07340444    -0.03362835     -0.1727172     -0.2952605     -0.3572313
     -0.3499217     -0.3060128     -0.2741397     -0.2827680     -0.3231279
     -0.3626395     -0.3731373     -0.3481014     -0.2972306     -0.2286161
     -0.1380583    -0.01607993      0.1340623      0.2845725      0.3896961
      0.4072390      0.3203617      0.1470008    -0.06623514     -0.2611623
     -0.3881313     -0.4210982     -0.3630714     -0.2422785     -0.1015641
     0.01668226     0.08587348      0.1033870     0.08588593     0.05464775
     0.02181395    -0.01222662    -0.05013516    -0.08790074     -0.1150356
     -0.1249859     -0.1244903     -0.1310263     -0.1599576     -0.2133004
     -0.2789233     -0.3376738     -0.3703815     -0.3615833     -0.3031783
     -0.2001437    -0.07435289     0.03974331      0.1084293      0.1139822
     0.06244394    -0.02055763     -0.1028996     -0.1600850     -0.1829597
     -0.1764962     -0.1529618     -0.1254976     -0.1054742     -0.1018259
     -0.1189461     -0.1533849     -0.1932864     -0.2228773     -0.2293187
     -0.2072591     -0.1592757    -0.09399604    -0.02427978     0.03428132
     0.06598423     0.05936677     0.01181840    -0.06790170     -0.1609659
     -0.2441953     -0.2987309     -0.3171654     -0.3039161     -0.2680883
     -0.2148305     -0.1432296    -0.05271968     0.04880520      0.1440425
      0.2139513      0.2465827      0.2392210      0.1943557      0.1169691
     0.01764142    -0.08351953     -0.1612526     -0.1991699     -0.2025286
     -0.1962021     -0.2062222     -0.2391264     -0.2770206     -0.2930259
     -0.2739289     -0.2309461     -0.1900905     -0.1707994     -0.1708843
     -0.1698747     -0.1467880    -0.09643260    -0.03080536     0.03377586
     0.09053250      0.1441365      0.2000689      0.2529021      0.2854919
      0.2802362      0.2321353      0.1521065     0.05849347    -0.03473499
     -0.1229112     -0.2063081     -0.2830227     -0.3468758     -0.3914714
     -0.4152071     -0.4220415     -0.4173839     -0.4027635     -0.3742587
     -0.3268881     -0.2616009     -0.1882425     -0.1211442    -0.07118102
    -0.04143650    -0.02941510    -0.03228264    -0.04942258    -0.07991156
     -0.1180240     -0.1523562     -0.1709825     -0.1691424     -0.1528889
     -0.1350685     -0.1265253     -0.1292803     -0.1362310     -0.1365038
     -0.1220873    -0.09172142    -0.05070334   -0.007950410     0.02734261
     0.04814611     0.05141184     0.03948859     0.01992727    0.002364130
   -0.006442199   -0.005914634  -0.0007279315    0.002977865   0.0004660641
    -0.01145219    -0.03505887    -0.07022712     -0.1110679     -0.1449039
     -0.1571602     -0.1403800     -0.1007880    -0.05669767    -0.02924952
    -0.03190802    -0.06530929     -0.1191289     -0.1781249     -0.2284735
     -0.2616999     -0.2752588     -0.2705877     -0.2506449     -0.2187888
     -0.1792797     -0.1377306    -0.09955253    -0.06694393    -0.03779455
   -0.008972703     0.01828078     0.03649012     0.03637447     0.01391007
    -0.02617467    -0.07295784     -0.1151926     -0.1460697     -0.1646260
     -0.1742965     -0.1801813     -0.1864640     -0.1948961     -0.2044185
     -0.2114168     -0.2105612     -0.1967936     -0.1682513     -0.1282908
    -0.08467112    -0.04611749    -0.01873064   -0.004554491   -0.002356370
   -0.008957827    -0.01999009    -0.03062252    -0.03732077    -0.04025993
    -0.04434751    -0.05701307    -0.08330473     -0.1213912     -0.1617819
     -0.1912321     -0.1991807     -0.1828800     -0.1484212     -0.1075981
    -0.07279643    -0.05249715    -0.04896710    -0.05854650    -0.07411189
    -0.08860607    -0.09799866     -0.1021568     -0.1031343     -0.1020856
    -0.09742675    -0.08627832    -0.06831188    -0.04842127    -0.03514577
    -0.03545430    -0.04996394    -0.07258146    -0.09498706     -0.1124439
     -0.1264077     -0.1421591     -0.1637844     -0.1907105     -0.2181426
     -0.2401021     -0.2518787     -0.2503378     -0.2335039     -0.2014733
     -0.1582560     -0.1119669    -0.07193728    -0.04458295    -0.03126956
    -0.02942778    -0.03531006    -0.04601329    -0.05972077    -0.07472257
    -0.08849063    -0.09785393     -0.1004678    -0.09666664    -0.09018416
    -0.08677252    -0.09112079     -0.1039305     -0.1213496     -0.1373237
     -0.1472078     -0.1502383     -0.1495421     -0.1500474     -0.1555225
     -0.1660727     -0.1774364     -0.1827956     -0.1763842     -0.1569004
     -0.1285628    -0.09892159    -0.07471798    -0.05866472    -0.04932359
    -0.04366005    -0.03982121    -0.03782140    -0.03793629    -0.03891233
    -0.03822593    -0.03443980    -0.02950725    -0.02871202    -0.03791702
    -0.06003381    -0.09297560     -0.1299586     -0.1617175     -0.1797402
     -0.1794776     -0.1623819     -0.1357127     -0.1096948    -0.09296432
    -0.08857922    -0.09301738    -0.09899136     -0.1004114    -0.09616207
    -0.08999334    -0.08678617    -0.08853404    -0.09361729    -0.09969541
     -0.1068898     -0.1177166     -0.1336967     -0.1521401     -0.1666649
     -0.1714499     -0.1654799     -0.1528266     -0.1386161     -0.1243844
     -0.1071330    -0.08298621    -0.05209643    -0.02027905    0.004168504
     0.01571145     0.01451741    0.005066302   -0.007799349    -0.02182503
    -0.03723497    -0.05458598    -0.07318255    -0.09140062     -0.1079086
     -0.1219646     -0.1324779     -0.1373989     -0.1347493     -0.1244883
     -0.1092867    -0.09344666    -0.08094180    -0.07407179    -0.07340300
    -0.07844815    -0.08815703     -0.1008911     -0.1142363     -0.1252795
     -0.1316072     -0.1323785     -0.1284457     -0.1214164     -0.1127418
     -0.1037364    -0.09610187    -0.09176952    -0.09168002    -0.09466539
    -0.09794479    -0.09916230    -0.09806663    -0.09615207    -0.09480329
    -0.09402417    -0.09294248    -0.09125579    -0.08988591    -0.09010442
    -0.09202325    -0.09395991    -0.09338638    -0.08877081    -0.08084795
    -0.07233603    -0.06637879    -0.06491214    -0.06799333    -0.07419601
    -0.08136563    -0.08714050    -0.08940218    -0.08701666    -0.08072887
    -0.07355990    -0.06995736    -0.07369767    -0.08573483     -0.1035336
     -0.1223761     -0.1376992     -0.1470327     -0.1506368     -0.1507369
     -0.1498856     -0.1494116     -0.1489504     -0.1473437     -0.1440270
     -0.1396428     -0.1354832     -0.1324371     -0.1304199     -0.1286846
     -0.1265531     -0.1238636     -0.1208570     -0.1176763     -0.1138250
     -0.1079246    -0.09811150    -0.08328220    -0.06469059    -0.04658519
    -0.03479840    -0.03359737    -0.04264530    -0.05646146    -0.06738682
    -0.07025667    -0.06535812    -0.05758897    -0.05275876    -0.05397848
    -0.06049845    -0.06903370    -0.07591673    -0.07867754    -0.07684790
    -0.07215137    -0.06787349    -0.06738047    -0.07242458    -0.08220276
    -0.09390704     -0.1045576     -0.1126940     -0.1185162     -0.1225573
     -0.1243907     -0.1227957     -0.1172232     -0.1090097     -0.1010275
    -0.09597383    -0.09476741    -0.09638298    -0.09911384     -0.1020014
     -0.1051996     -0.1091894     -0.1137253     -0.1175050     -0.1188864
     -0.1170139     -0.1124008     -0.1065609     -0.1009915    -0.09624590
    -0.09183929    -0.08700612    -0.08146618    -0.07554646    -0.06989764
    -0.06538290    -0.06319565    -0.06466809    -0.07051007    -0.08002862
    -0.09114248     -0.1014272     -0.1093996     -0.1148579     -0.1181102
     -0.1191349     -0.1176091     -0.1136464     -0.1083249     -0.1033828
     -0.1003661     -0.1000121     -0.1023618     -0.1073266     -0.1149437
     -0.1249991     -0.1365005     -0.1476907     -0.1568191     -0.1631531
     -0.1673895     -0.1710286     -0.1751191     -0.1794016     -0.1825418
     -0.1831005     -0.1803494     -0.1743913     -0.1656914     -0.1545983
     -0.1414195     -0.1269843     -0.1130582     -0.1020510    -0.09595868
    -0.09508740    -0.09748241    -0.09971707    -0.09873740    -0.09351960
    -0.08539567    -0.07691601    -0.07016727    -0.06588072    -0.06390779
    -0.06423646    -0.06727625    -0.07316209    -0.08095850    -0.08860591
    -0.09367153    -0.09443242    -0.09070540    -0.08397572    -0.07674373
    -0.07145637    -0.06964999    -0.07183980    -0.07807654    -0.08836080
     -0.1022193     -0.1177405     -0.1312123     -0.1382157     -0.1357524
     -0.1239770     -0.1063077    -0.08789088    -0.07343188    -0.06551649
    -0.06408927    -0.06714132    -0.07208614    -0.07703292    -0.08128496
    -0.08487594    -0.08765397    -0.08874443    -0.08684485    -0.08118556
    -0.07252941    -0.06336324    -0.05686565    -0.05526624    -0.05873517
    -0.06548026    -0.07287714    -0.07877032    -0.08206207    -0.08249660
    -0.08028779    -0.07613498    -0.07150037    -0.06853177    -0.06927216
    -0.07456889    -0.08346084    -0.09350599     -0.1019234     -0.1069131
     -0.1084110     -0.1078951     -0.1073429     -0.1078711     -0.1089355
     -0.1087747     -0.1058300     -0.1000472    -0.09310836    -0.08752511
    -0.08530181    -0.08701346    -0.09174150    -0.09772594     -0.1032507
     -0.1072593     -0.1094232     -0.1098936     -0.1091665     -0.1081129
     -0.1078906     -0.1094864     -0.1130295     -0.1173927     -0.1204435
     -0.1198723     -0.1141938     -0.1034409    -0.08927900    -0.07449687
    -0.06208701    -0.05431863    -0.05212002    -0.05492518    -0.06100672
